[{"index":0,"postcode":810,"Suburb":"Tiwi","state":"NT","long":130.866242,"lat":-12.381806},{"index":16,"postcode":812,"Suburb":"Leanyer","state":"NT","long":130.89047,"lat":-12.39124885},{"index":27,"postcode":820,"Suburb":"Parap","state":"NT","long":130.873315,"lat":-12.428017},{"index":47,"postcode":829,"Suburb":"Pinelands","state":"NT","long":130.9597671,"lat":-12.45763297},{"index":48,"postcode":830,"Suburb":"Gray","state":"NT","long":130.9580765,"lat":-12.52139649},{"index":59,"postcode":832,"Suburb":"Johnston","state":"NT","long":130.9936551,"lat":-12.49684676},{"index":67,"postcode":836,"Suburb":"Humpty Doo","state":"NT","long":131.100668,"lat":-12.557754},{"index":69,"postcode":837,"Suburb":"Noonamah","state":"NT","long":131.016647,"lat":-12.704767},{"index":71,"postcode":838,"Suburb":"Berry Springs","state":"NT","long":131.0067348,"lat":-12.71878122},{"index":72,"postcode":851,"Suburb":"Katherine","state":"NT","long":137.050719,"lat":-15.711424},{"index":73,"postcode":871,"Suburb":"Alice Springs","state":"NT","long":131.298809,"lat":-21.949513},{"index":74,"postcode":1710,"Suburb":"EPPING","state":"NSW","long":151.116696,"lat":-33.78417},{"index":75,"postcode":1885,"Suburb":"BANKSTOWN","state":"NSW","long":151.024581,"lat":-33.907417},{"index":76,"postcode":1888,"Suburb":"BANKSTOWN","state":"NSW","long":151.024581,"lat":-33.907417},{"index":77,"postcode":2000,"Suburb":"Sydney","state":"NSW","long":151.2015802,"lat":-33.86051951},{"index":86,"postcode":2009,"Suburb":"Pyrmont","state":"NSW","long":151.193055,"lat":-33.871222},{"index":88,"postcode":2010,"Suburb":"Darlinghurst","state":"NSW","long":151.212262,"lat":-33.884119},{"index":91,"postcode":2011,"Suburb":"Woolloomooloo","state":"NSW","long":151.221626,"lat":-33.873599},{"index":97,"postcode":2016,"Suburb":"Redfern","state":"NSW","long":151.206211,"lat":-33.894912},{"index":98,"postcode":2017,"Suburb":"Waterloo","state":"NSW","long":151.206316,"lat":-33.903892},{"index":101,"postcode":2020,"Suburb":"Mascot","state":"NSW","long":151.176775,"lat":-33.936179},{"index":104,"postcode":2021,"Suburb":"Paddington","state":"NSW","long":151.227236,"lat":-33.895705},{"index":107,"postcode":2022,"Suburb":"Bondi Junction","state":"NSW","long":151.245049,"lat":-33.896401},{"index":110,"postcode":2025,"Suburb":"Woollahra","state":"NSW","long":151.240508,"lat":-33.88871},{"index":111,"postcode":2028,"Suburb":"Double Bay","state":"NSW","long":151.240965,"lat":-33.878413},{"index":112,"postcode":2029,"Suburb":"Rose Bay","state":"NSW","long":151.266989,"lat":-33.875709},{"index":113,"postcode":2030,"Suburb":"Vaucluse","state":"NSW","long":151.275977,"lat":-33.858378},{"index":119,"postcode":2031,"Suburb":"Randwick","state":"NSW","long":151.239167,"lat":-33.914832},{"index":124,"postcode":2032,"Suburb":"Kingsford","state":"NSW","long":151.223936,"lat":-33.930314},{"index":126,"postcode":2033,"Suburb":"Kensington","state":"NSW","long":151.218435,"lat":-33.91139},{"index":127,"postcode":2034,"Suburb":"COOGEE","state":"NSW","long":151.252171,"lat":-33.929096},{"index":129,"postcode":2035,"Suburb":"Maroubra","state":"NSW","long":151.241292,"lat":-33.945635},{"index":132,"postcode":2037,"Suburb":"Glebe","state":"NSW","long":151.184458,"lat":-33.880179},{"index":134,"postcode":2038,"Suburb":"Annandale","state":"NSW","long":151.170165,"lat":-33.881624},{"index":135,"postcode":2040,"Suburb":"Leichardt","state":"NSW","long":151.156819,"lat":-33.878774},{"index":137,"postcode":2041,"Suburb":"Balmain","state":"NSW","long":151.180095,"lat":-33.858556},{"index":140,"postcode":2046,"Suburb":"Five Dock","state":"NSW","long":151.133865,"lat":-33.866044},{"index":147,"postcode":2047,"Suburb":"Drummoyne","state":"NSW","long":151.165735,"lat":-33.853924},{"index":148,"postcode":2049,"Suburb":"Petersham","state":"NSW","long":151.15085,"lat":-33.897219},{"index":151,"postcode":2060,"Suburb":"North Sydney","state":"NSW","long":151.204557,"lat":-33.839863},{"index":158,"postcode":2061,"Suburb":"Milsons Point","state":"NSW","long":151.212372,"lat":-33.848785},{"index":160,"postcode":2062,"Suburb":"Cammeray","state":"NSW","long":151.21246,"lat":-33.822837},{"index":161,"postcode":2063,"Suburb":"Northbridge","state":"NSW","long":151.214797,"lat":-33.812636},{"index":162,"postcode":2065,"Suburb":"Wollstonecraft","state":"NSW","long":151.192212,"lat":-33.828361},{"index":170,"postcode":2066,"Suburb":"Lane Cove","state":"NSW","long":151.160912,"lat":-33.818641},{"index":178,"postcode":2067,"Suburb":"Chatswood","state":"NSW","long":151.17711,"lat":-33.798378},{"index":180,"postcode":2068,"Suburb":"Willoughby","state":"NSW","long":151.202715,"lat":-33.800881},{"index":186,"postcode":2069,"Suburb":"Roseville","state":"NSW","long":151.195368,"lat":-33.780246},{"index":189,"postcode":2070,"Suburb":"Lindfield","state":"NSW","long":151.162007,"lat":-33.78042},{"index":192,"postcode":2071,"Suburb":"Killara","state":"NSW","long":151.1814551,"lat":-33.75536381},{"index":194,"postcode":2072,"Suburb":"Gordon","state":"NSW","long":151.153176,"lat":-33.754582},{"index":195,"postcode":2073,"Suburb":"Pymble","state":"NSW","long":151.130278,"lat":-33.757296},{"index":197,"postcode":2076,"Suburb":"Wahroonga","state":"NSW","long":151.108249,"lat":-33.723263},{"index":200,"postcode":2077,"Suburb":"Hornsby Heights","state":"NSW","long":151.097508,"lat":-33.691922},{"index":204,"postcode":2078,"Suburb":"Forestville","state":null,"long":null,"lat":null},{"index":205,"postcode":2079,"Suburb":"Mt Colah","state":"NSW","long":151.112681,"lat":-33.666637},{"index":206,"postcode":2082,"Suburb":"Berowa Heights","state":"NSW","long":151.138709,"lat":-33.54620871},{"index":209,"postcode":2084,"Suburb":"Terrey hills","state":"NSW","long":151.216929,"lat":-33.650999},{"index":213,"postcode":2085,"Suburb":"Manly","state":"NSW","long":151.211719,"lat":-33.728782},{"index":216,"postcode":2086,"Suburb":"Frenchs Forest","state":"NSW","long":151.229211,"lat":-33.75185},{"index":218,"postcode":2087,"Suburb":"Killarnet Heights","state":"NSW","long":151.210531,"lat":-33.766093},{"index":220,"postcode":2088,"Suburb":"Mosman","state":"NSW","long":151.243351,"lat":-33.830687},{"index":222,"postcode":2089,"Suburb":"Neutral Bay","state":"NSW","long":151.2228263,"lat":-33.84149573},{"index":225,"postcode":2090,"Suburb":"Cremorne","state":"NSW","long":151.223094,"lat":-33.828949},{"index":228,"postcode":2092,"Suburb":"Seaforth","state":"NSW","long":151.241813,"lat":-33.796636},{"index":229,"postcode":2093,"Suburb":"Balgowlah","state":"NSW","long":151.258069,"lat":-33.79315},{"index":234,"postcode":2094,"Suburb":"Fairlight","state":"NSW","long":151.273242,"lat":-33.795227},{"index":235,"postcode":2095,"Suburb":"Manly","state":"NSW","long":151.294675,"lat":-33.815482},{"index":237,"postcode":2096,"Suburb":"Freshwater","state":"NSW","long":151.28494,"lat":-33.776781},{"index":241,"postcode":2097,"Suburb":"Collaroy Plateau","state":"NSW","long":151.297895,"lat":-33.739577},{"index":247,"postcode":2099,"Suburb":"Cromer","state":"NSW","long":151.279999,"lat":-33.748914},{"index":254,"postcode":2100,"Suburb":"Allambie Heights","state":"NSW","long":151.257781,"lat":-33.766409},{"index":261,"postcode":2101,"Suburb":"Narrabeen","state":"NSW","long":151.27114,"lat":-33.707117},{"index":266,"postcode":2102,"Suburb":"Warriewood","state":"NSW","long":151.290953,"lat":-33.689941},{"index":269,"postcode":2103,"Suburb":"Mona Vale","state":"NSW","long":151.302825,"lat":-33.679336},{"index":270,"postcode":2106,"Suburb":"Newport","state":"NSW","long":151.314599,"lat":-33.660707},{"index":272,"postcode":2107,"Suburb":"Avalon Beach","state":"NSW","long":151.323289,"lat":-33.634816},{"index":282,"postcode":2108,"Suburb":"Palm Beach","state":"NSW","long":151.322759,"lat":-33.60382},{"index":288,"postcode":2110,"Suburb":"Hunters Hill","state":"NSW","long":151.149126,"lat":-33.836102},{"index":291,"postcode":2111,"Suburb":"Gladesville","state":"NSW","long":151.124488,"lat":-33.829953},{"index":298,"postcode":2112,"Suburb":"Ryde","state":"NSW","long":151.108447,"lat":-33.81658},{"index":301,"postcode":2113,"Suburb":"North Ryde","state":"NSW","long":151.130233,"lat":-33.79419},{"index":306,"postcode":2116,"Suburb":"Chirnside Park","state":"NSW","long":151.036941,"lat":-33.814368},{"index":307,"postcode":2117,"Suburb":"Telopea","state":"NSW","long":151.04218,"lat":-33.797127},{"index":311,"postcode":2118,"Suburb":"Carlingford","state":"NSW","long":151.043518,"lat":-33.775596},{"index":315,"postcode":2119,"Suburb":"Cheltenham","state":"NSW","long":151.064176,"lat":-33.755499},{"index":317,"postcode":2120,"Suburb":"Pennant Hills","state":"NSW","long":151.07359,"lat":-33.731105},{"index":320,"postcode":2121,"Suburb":"Epping","state":"NSW","long":151.079919,"lat":-33.774145},{"index":322,"postcode":2122,"Suburb":"Eastwood","state":"NSW","long":151.092072,"lat":-33.791357},{"index":324,"postcode":2125,"Suburb":"West Pennant Hills","state":"NSW","long":151.031807,"lat":-33.752645},{"index":325,"postcode":2127,"Suburb":"Sydney Olympic Park","state":"NSW","long":151.076186,"lat":-33.85283},{"index":329,"postcode":2130,"Suburb":"SUMMER HILL","state":"NSW","long":151.135883,"lat":-33.892783},{"index":330,"postcode":2131,"Suburb":"Ashfield","state":"NSW","long":151.124008,"lat":-33.887602},{"index":331,"postcode":2132,"Suburb":"Croydon","state":"NSW","long":151.113385,"lat":-33.882419},{"index":332,"postcode":2133,"Suburb":"Croydon Park","state":"NSW","long":151.102087,"lat":-33.898793},{"index":334,"postcode":2134,"Suburb":"Burwood","state":"NSW","long":151.101757,"lat":-33.880049},{"index":336,"postcode":2135,"Suburb":"Strathfield","state":"NSW","long":151.084759,"lat":-33.881009},{"index":337,"postcode":2136,"Suburb":"Enfield","state":"NSW","long":151.087741,"lat":-33.892944},{"index":340,"postcode":2138,"Suburb":"Concord West","state":"NSW","long":151.086036,"lat":-33.846098},{"index":344,"postcode":2144,"Suburb":"Auburn","state":"NSW","long":151.026756,"lat":-33.851868},{"index":346,"postcode":2145,"Suburb":"Greystanes","state":"NSW","long":150.9751544,"lat":-33.79382308},{"index":355,"postcode":2146,"Suburb":"Toongabbie","state":"NSW","long":150.959508,"lat":-33.789374},{"index":358,"postcode":2147,"Suburb":"Seven Hills","state":"NSW","long":150.935836,"lat":-33.766075},{"index":362,"postcode":2148,"Suburb":"Blacktown","state":"NSW","long":150.900547,"lat":-33.783751},{"index":369,"postcode":2150,"Suburb":"Parramatta","state":"NSW","long":151.006506,"lat":-33.814463},{"index":372,"postcode":2151,"Suburb":"North Parramatta","state":"NSW","long":151.012511,"lat":-33.78709},{"index":374,"postcode":2153,"Suburb":"Baulkham Hills","state":"NSW","long":150.955942,"lat":-33.731651},{"index":379,"postcode":2154,"Suburb":"Castle Hill","state":"NSW","long":151.000948,"lat":-33.73238},{"index":380,"postcode":2155,"Suburb":"North Kellyville","state":"NSW","long":150.931074,"lat":-33.731523},{"index":385,"postcode":2156,"Suburb":"Kenthurst","state":"NSW","long":150.974528,"lat":-33.656984},{"index":388,"postcode":2160,"Suburb":"Merrylands","state":"NSW","long":150.976594,"lat":-33.835883},{"index":390,"postcode":2161,"Suburb":"Guildford","state":"NSW","long":150.983724,"lat":-33.858335},{"index":394,"postcode":2162,"Suburb":"Chester Hill","state":"NSW","long":151.004128,"lat":-33.88349},{"index":396,"postcode":2165,"Suburb":"Fairfield West","state":"NSW","long":150.947496,"lat":-33.872435},{"index":400,"postcode":2166,"Suburb":"Cabramatta","state":"NSW","long":150.92937,"lat":-33.892738},{"index":405,"postcode":2168,"Suburb":"Ashcroft","state":"NSW","long":150.875345,"lat":-33.915939},{"index":413,"postcode":2170,"Suburb":"Casula","state":"NSW","long":150.921448,"lat":-33.928392},{"index":425,"postcode":2176,"Suburb":"Bossley Park","state":"NSW","long":150.88526,"lat":-33.872014},{"index":432,"postcode":2177,"Suburb":"Bonnyrigg","state":"NSW","long":150.879379,"lat":-33.895053},{"index":435,"postcode":2190,"Suburb":"Greenacre","state":"NSW","long":151.053858,"lat":-33.901925},{"index":438,"postcode":2192,"Suburb":"Belmore","state":"NSW","long":151.089663,"lat":-33.921018},{"index":439,"postcode":2193,"Suburb":"Canterbury","state":"NSW","long":151.12086,"lat":-33.910308},{"index":442,"postcode":2195,"Suburb":"Lakemba","state":"NSW","long":151.076939,"lat":-33.924525},{"index":445,"postcode":2196,"Suburb":"Punchbowl","state":"NSW","long":151.057799,"lat":-33.930089},{"index":447,"postcode":2197,"Suburb":"Bass Hill","state":"NSW","long":150.998155,"lat":-33.901198},{"index":448,"postcode":2198,"Suburb":"Georges Hall","state":"NSW","long":150.986277,"lat":-33.908788},{"index":449,"postcode":2199,"Suburb":"Yagoona","state":"NSW","long":151.023171,"lat":-33.905586},{"index":451,"postcode":2200,"Suburb":"Bankstown","state":"NSW","long":151.014937,"lat":-33.926559},{"index":459,"postcode":2203,"Suburb":"Dulwich Hill","state":"NSW","long":151.138999,"lat":-33.90441},{"index":460,"postcode":2204,"Suburb":"Marrickville","state":"NSW","long":151.155539,"lat":-33.912288},{"index":463,"postcode":2205,"Suburb":"Wolli Creek","state":"NSW","long":151.147956,"lat":-33.937551},{"index":466,"postcode":2206,"Suburb":"Earlwood","state":"NSW","long":151.122881,"lat":-33.926056},{"index":469,"postcode":2207,"Suburb":"Bexley","state":"NSW","long":151.119517,"lat":-33.948744},{"index":474,"postcode":2208,"Suburb":"Kingsgrove","state":"NSW","long":151.098002,"lat":-33.942632},{"index":476,"postcode":2209,"Suburb":"Beverly Hills","state":"NSW","long":151.075304,"lat":-33.94913},{"index":478,"postcode":2210,"Suburb":"Peakhurst","state":"NSW","long":151.052257,"lat":-33.957725},{"index":483,"postcode":2211,"Suburb":"Padstow","state":"NSW","long":151.03221,"lat":-33.961366},{"index":485,"postcode":2213,"Suburb":"Panania","state":"NSW","long":150.997836,"lat":-33.964102},{"index":488,"postcode":2216,"Suburb":"Rockdale","state":"NSW","long":151.148204,"lat":-33.955393},{"index":494,"postcode":2217,"Suburb":"Ramsgate","state":"NSW","long":151.140345,"lat":-33.974354},{"index":500,"postcode":2218,"Suburb":"Carlton","state":"NSW","long":151.117453,"lat":-33.973161},{"index":502,"postcode":2219,"Suburb":"Dolls Point","state":"NSW","long":151.132495,"lat":-33.996587},{"index":505,"postcode":2221,"Suburb":"South Hurstville","state":"NSW","long":151.10599,"lat":-33.992159},{"index":510,"postcode":2228,"Suburb":"Miranda","state":"NSW","long":151.101564,"lat":-34.037692},{"index":512,"postcode":2229,"Suburb":"Caringbah","state":"NSW","long":151.120091,"lat":-34.05494},{"index":519,"postcode":2230,"Suburb":"Cronulla","state":"NSW","long":151.136596,"lat":-34.093213},{"index":525,"postcode":2232,"Suburb":"Kirrawee","state":"NSW","long":151.064329,"lat":-34.061753},{"index":534,"postcode":2233,"Suburb":"Engadine","state":"NSW","long":151.027919,"lat":-34.114626},{"index":539,"postcode":2234,"Suburb":"Illawong","state":"NSW","long":151.004412,"lat":-34.021938},{"index":546,"postcode":2250,"Suburb":"Somersby","state":"NSW","long":151.189243,"lat":-33.325373},{"index":582,"postcode":2251,"Suburb":"Kincumber","state":"NSW","long":151.401999,"lat":-33.482209},{"index":594,"postcode":2257,"Suburb":"Umina Beach","state":"NSW","long":151.374403,"lat":-33.520358},{"index":606,"postcode":2259,"Suburb":"Kanwal","state":"NSW","long":151.377213,"lat":-33.208801},{"index":649,"postcode":2260,"Suburb":"Terrigal","state":"NSW","long":151.436939,"lat":-33.42537},{"index":654,"postcode":2261,"Suburb":"Bateau Bay","state":"NSW","long":151.519708,"lat":-33.315827},{"index":669,"postcode":2262,"Suburb":"Budgewoi","state":"NSW","long":151.528042,"lat":-33.209125},{"index":678,"postcode":2263,"Suburb":"Gorokan","state":"NSW","long":151.556223,"lat":-33.285097},{"index":685,"postcode":2280,"Suburb":"Belmont","state":"NSW","long":151.663175,"lat":-33.019715},{"index":693,"postcode":2283,"Suburb":"Toronto","state":"NSW","long":151.57181,"lat":-33.019117},{"index":708,"postcode":2284,"Suburb":"Speers Point","state":"NSW","long":151.621183,"lat":-32.953236},{"index":715,"postcode":2285,"Suburb":"Edgeworth","state":"NSW","long":151.651095,"lat":-32.933305},{"index":722,"postcode":2286,"Suburb":"West Wallsend","state":"NSW","long":151.532669,"lat":-32.923321},{"index":725,"postcode":2289,"Suburb":"Adamstown Heights","state":"NSW","long":151.71008,"lat":-32.948567},{"index":732,"postcode":2290,"Suburb":"Redhead","state":"NSW","long":151.707801,"lat":-32.983963},{"index":742,"postcode":2291,"Suburb":"Merewether","state":"NSW","long":151.742882,"lat":-32.951039},{"index":745,"postcode":2300,"Suburb":"Cooks Hill","state":"NSW","long":151.778021,"lat":-32.931635},{"index":750,"postcode":2302,"Suburb":"Newcastle West","state":"NSW","long":151.752466,"lat":-32.931265},{"index":751,"postcode":2305,"Suburb":"New Lambton","state":"NSW","long":151.706545,"lat":-32.930221},{"index":754,"postcode":2320,"Suburb":"Bolwarra","state":"NSW","long":151.543675,"lat":-32.741737},{"index":784,"postcode":2321,"Suburb":"Duckenfield","state":"NSW","long":151.683702,"lat":-32.660186},{"index":806,"postcode":2322,"Suburb":"Woodberry","state":"NSW","long":151.65415,"lat":-32.819819},{"index":816,"postcode":2323,"Suburb":"East Maitland","state":"NSW","long":151.607554,"lat":-32.757616},{"index":832,"postcode":2325,"Suburb":"Kearsley","state":"NSW","long":151.317476,"lat":-32.977861},{"index":869,"postcode":2333,"Suburb":"Muswellbrook","state":"NSW","long":150.701949,"lat":-32.248568},{"index":883,"postcode":2350,"Suburb":"Armidale","state":"NSW","long":151.906153,"lat":-30.493397},{"index":922,"postcode":2421,"Suburb":"Paterson","state":"NSW","long":151.543017,"lat":-32.601853},{"index":930,"postcode":2430,"Suburb":"Old Bar","state":"NSW","long":152.503209,"lat":-31.899311},{"index":973,"postcode":2431,"Suburb":"South West Rocks","state":"NSW","long":153.053789,"lat":-30.925233},{"index":976,"postcode":2439,"Suburb":"Kendall","state":"NSW","long":152.652155,"lat":-31.654722},{"index":988,"postcode":2440,"Suburb":"Hat Head","state":"NSW","long":153.019648,"lat":-30.375791},{"index":1038,"postcode":2443,"Suburb":"Laurieton","state":"NSW","long":152.747152,"lat":-31.725436},{"index":1057,"postcode":2444,"Suburb":"Port Macquarie","state":"NSW","long":152.87253,"lat":-31.439614},{"index":1069,"postcode":2445,"Suburb":"Bonny Hills","state":"NSW","long":152.820899,"lat":-31.583037},{"index":1073,"postcode":2446,"Suburb":"Wauchope","state":"NSW","long":152.466916,"lat":-31.387394},{"index":1114,"postcode":2448,"Suburb":"Nambucca Heads","state":"NSW","long":152.956681,"lat":-30.604667},{"index":1119,"postcode":2450,"Suburb":"Coffs Harbour","state":"NSW","long":152.658268,"lat":-30.097726},{"index":1141,"postcode":2452,"Suburb":"Sawtell","state":"NSW","long":153.08188,"lat":-30.357168},{"index":1145,"postcode":2454,"Suburb":"Bellingen","state":"NSW","long":152.840266,"lat":-30.459807},{"index":1166,"postcode":2455,"Suburb":"Urunga","state":"NSW","long":152.96348,"lat":-30.529366},{"index":1168,"postcode":2456,"Suburb":"Woolgoolga","state":"NSW","long":153.143409,"lat":-30.073663},{"index":1179,"postcode":2460,"Suburb":"Grafton","state":"NSW","long":153.271074,"lat":-29.320772},{"index":1276,"postcode":2462,"Suburb":"Wooli","state":"NSW","long":153.187047,"lat":-29.829194},{"index":1288,"postcode":2463,"Suburb":"Townsend","state":"NSW","long":153.104789,"lat":-29.36691},{"index":1307,"postcode":2466,"Suburb":"Iluka","state":"NSW","long":153.350886,"lat":-29.407475},{"index":1310,"postcode":2477,"Suburb":"Alstonville","state":"NSW","long":153.427314,"lat":-28.907675},{"index":1326,"postcode":2478,"Suburb":"Ballina","state":"NSW","long":153.532475,"lat":-28.865483},{"index":1343,"postcode":2482,"Suburb":"Mullumbimby","state":"NSW","long":153.432398,"lat":-28.547307},{"index":1356,"postcode":2484,"Suburb":"Murwillumbah","state":"NSW","long":153.31648,"lat":-28.38059},{"index":1414,"postcode":2485,"Suburb":"Tweed Heads South","state":"NSW","long":153.526816,"lat":-28.184241},{"index":1416,"postcode":2486,"Suburb":"Banora Point","state":"NSW","long":153.479217,"lat":-28.215215},{"index":1430,"postcode":2487,"Suburb":"Kingscliff","state":"NSW","long":153.548588,"lat":-28.27973},{"index":1438,"postcode":2488,"Suburb":"Bogangar","state":"NSW","long":153.560693,"lat":-28.34099},{"index":1441,"postcode":2489,"Suburb":"Pottsville","state":"NSW","long":153.541853,"lat":-28.392183},{"index":1444,"postcode":2500,"Suburb":"Wollongong","state":"NSW","long":150.874294,"lat":-34.423171},{"index":1457,"postcode":2502,"Suburb":"Warrawong","state":"NSW","long":150.873081,"lat":-34.494723},{"index":1461,"postcode":2519,"Suburb":"Fairy Meadow","state":"NSW","long":150.709623,"lat":-34.35558},{"index":1467,"postcode":2526,"Suburb":"Farmborough Heights","state":"NSW","long":150.77681,"lat":-34.380765},{"index":1475,"postcode":2527,"Suburb":"Albion Park","state":"NSW","long":150.754592,"lat":-34.583539},{"index":1483,"postcode":2529,"Suburb":"Oaks Flats","state":"NSW","long":150.84584,"lat":-34.592433},{"index":1493,"postcode":2530,"Suburb":"Dapto","state":"NSW","long":150.766132,"lat":-34.505411},{"index":1506,"postcode":2533,"Suburb":"Kiama Downs","state":"NSW","long":150.756883,"lat":-34.645377},{"index":1515,"postcode":2535,"Suburb":"Berry","state":"NSW","long":150.678303,"lat":-34.762116},{"index":1530,"postcode":2537,"Suburb":"Tomakin","state":"NSW","long":149.912199,"lat":-35.939649},{"index":1547,"postcode":2538,"Suburb":"Milton","state":"NSW","long":150.320507,"lat":-35.366161},{"index":1555,"postcode":2539,"Suburb":"Ulladulla","state":"NSW","long":150.393202,"lat":-35.522387},{"index":1581,"postcode":2540,"Suburb":"Tomerong","state":"NSW","long":150.61644,"lat":-34.863483},{"index":1650,"postcode":2541,"Suburb":"North Nowra","state":"NSW","long":150.450994,"lat":-34.990592},{"index":1659,"postcode":2551,"Suburb":"Avoca Beach\/Mulgoa","state":"NSW","long":149.792364,"lat":-37.267687},{"index":1673,"postcode":2560,"Suburb":"Ambarvale","state":"NSW","long":150.768408,"lat":-34.194216},{"index":1692,"postcode":2565,"Suburb":"Denham Court","state":"NSW","long":150.8618744,"lat":-33.97723383},{"index":1696,"postcode":2566,"Suburb":"St Andrews","state":"NSW","long":150.842258,"lat":-34.027283},{"index":1703,"postcode":2570,"Suburb":"Camden South","state":"NSW","long":150.525292,"lat":-34.042913},{"index":1726,"postcode":2574,"Suburb":"Bargo","state":"NSW","long":150.6685734,"lat":-34.4254438},{"index":1730,"postcode":2576,"Suburb":"Bowral","state":"NSW","long":150.503502,"lat":-34.525612},{"index":1737,"postcode":2577,"Suburb":"Kangaroo Valley","state":"NSW","long":150.410978,"lat":-34.595027},{"index":1770,"postcode":2578,"Suburb":"Bundanoon","state":"NSW","long":150.293226,"lat":-34.715579},{"index":1771,"postcode":2580,"Suburb":"Goulburn","state":"NSW","long":149.729215,"lat":-34.726283},{"index":1824,"postcode":2587,"Suburb":"Wombat","state":"NSW","long":148.360971,"lat":-34.505797},{"index":1836,"postcode":2590,"Suburb":"Cootamundra","state":"NSW","long":147.896911,"lat":-34.714515},{"index":1839,"postcode":2594,"Suburb":"Young","state":"NSW","long":148.10732,"lat":-34.231083},{"index":1855,"postcode":2611,"Suburb":"Waramanga","state":"NSW","long":148.7089956,"lat":-35.57315758},{"index":1878,"postcode":2614,"Suburb":"Hawker","state":"ACT","long":149.049796,"lat":-35.257315},{"index":1886,"postcode":2615,"Suburb":"Holt","state":"ACT","long":149.029308,"lat":-35.215386},{"index":1901,"postcode":2617,"Suburb":"EVATT","state":"ACT","long":149.086682,"lat":-35.231279},{"index":1910,"postcode":2620,"Suburb":"Karabar","state":"ACT","long":149.2104515,"lat":-35.34172619},{"index":1947,"postcode":2640,"Suburb":"West Albury","state":"NSW","long":147.026549,"lat":-36.016196},{"index":1964,"postcode":2648,"Suburb":"Pooncarie","state":"NSW","long":141.8018461,"lat":-33.29624634},{"index":1982,"postcode":2650,"Suburb":"Wagga Wagga","state":"NSW","long":147.376202,"lat":-35.07459},{"index":2044,"postcode":2713,"Suburb":"Finley","state":"NSW","long":145.52068,"lat":-35.586342},{"index":2049,"postcode":2722,"Suburb":"Gundagai","state":"NSW","long":148.102866,"lat":-35.053523},{"index":2067,"postcode":2730,"Suburb":"Batlow","state":"NSW","long":148.034012,"lat":-35.510039},{"index":2072,"postcode":2745,"Suburb":"Glenmore Park","state":"NSW","long":150.671487,"lat":-33.871341},{"index":2078,"postcode":2747,"Suburb":"Werrington","state":"NSW","long":150.7376907,"lat":-33.77413222},{"index":2090,"postcode":2749,"Suburb":"Cranebrook","state":"NSW","long":150.686816,"lat":-33.702167},{"index":2092,"postcode":2750,"Suburb":"Jamisontown","state":"NSW","long":150.678551,"lat":-33.755476},{"index":2100,"postcode":2756,"Suburb":"South Windsor","state":"NSW","long":150.88744,"lat":-33.466271},{"index":2129,"postcode":2758,"Suburb":"Bilpin","state":"NSW","long":150.601824,"lat":-33.483614},{"index":2140,"postcode":2759,"Suburb":"St Clair","state":"NSW","long":150.781767,"lat":-33.82252},{"index":2142,"postcode":2760,"Suburb":"Colyton","state":"NSW","long":150.780073,"lat":-33.763976},{"index":2149,"postcode":2761,"Suburb":"Hassall Grove","state":"NSW","long":150.84746,"lat":-33.742006},{"index":2156,"postcode":2763,"Suburb":"Quakers Hill","state":"NSW","long":150.89547,"lat":-33.725619},{"index":2159,"postcode":2765,"Suburb":"Riverstone","state":"NSW","long":150.79576,"lat":-33.672237},{"index":2172,"postcode":2766,"Suburb":"Rooty Hill","state":"NSW","long":150.850764,"lat":-33.810388},{"index":2174,"postcode":2767,"Suburb":"Doonside","state":"NSW","long":150.8651828,"lat":-33.77972161},{"index":2177,"postcode":2768,"Suburb":"Glenwood","state":"NSW","long":150.922732,"lat":-33.737863},{"index":2180,"postcode":2769,"Suburb":"The Ponds","state":"NSW","long":150.9054927,"lat":-33.7054643},{"index":2181,"postcode":2770,"Suburb":"Lethbridge Park","state":"NSW","long":150.810246,"lat":-33.756443},{"index":2194,"postcode":2774,"Suburb":"Blaxland","state":"NSW","long":150.62902,"lat":-33.732671},{"index":2198,"postcode":2777,"Suburb":"Springwood","state":"NSW","long":150.587962,"lat":-33.692534},{"index":2204,"postcode":2780,"Suburb":"Leura","state":"NSW","long":150.435639,"lat":-33.832923},{"index":2209,"postcode":2787,"Suburb":"Oberon","state":"NSW","long":150.153221,"lat":-34.06024},{"index":2230,"postcode":2790,"Suburb":"Lithgow","state":"NSW","long":150.356874,"lat":-33.310653},{"index":2274,"postcode":2794,"Suburb":"Cowra","state":"NSW","long":148.664838,"lat":-33.898505},{"index":2281,"postcode":2795,"Suburb":"Bathurst","state":"NSW","long":149.474401,"lat":-33.820797},{"index":2383,"postcode":2798,"Suburb":"Millthorpe","state":"NSW","long":149.158755,"lat":-33.462193},{"index":2391,"postcode":2799,"Suburb":"Blayney","state":"NSW","long":149.267666,"lat":-33.571335},{"index":2398,"postcode":2800,"Suburb":"Orange","state":"NSW","long":149.116263,"lat":-33.233929},{"index":2449,"postcode":2804,"Suburb":"Canowindra","state":"NSW","long":148.633991,"lat":-33.539564},{"index":2454,"postcode":2806,"Suburb":"Eugowra","state":"NSW","long":148.375577,"lat":-33.375562},{"index":2457,"postcode":2807,"Suburb":"Koorawatha","state":"NSW","long":148.562165,"lat":-34.036494},{"index":2458,"postcode":2810,"Suburb":"Grenfell","state":"NSW","long":148.054607,"lat":-33.902869},{"index":2466,"postcode":2818,"Suburb":"Geurie","state":"NSW","long":148.6686,"lat":-32.5009},{"index":2470,"postcode":2820,"Suburb":"Wellington","state":"NSW","long":148.989227,"lat":-32.553282},{"index":2497,"postcode":2821,"Suburb":"Narromine","state":"NSW","long":148.110385,"lat":-32.255249},{"index":2500,"postcode":2824,"Suburb":"Warren","state":"NSW","long":147.785831,"lat":-31.373201},{"index":2515,"postcode":2825,"Suburb":"Nyngan","state":"NSW","long":146.5079936,"lat":-31.92717863},{"index":2527,"postcode":2827,"Suburb":"Gilgandra","state":"NSW","long":148.648353,"lat":-31.63315},{"index":2534,"postcode":2830,"Suburb":"Dubbo","state":"NSW","long":148.657282,"lat":-32.24224},{"index":2563,"postcode":2834,"Suburb":"Lightning Ridge","state":"NSW","long":147.9287091,"lat":-29.12157608},{"index":2565,"postcode":2840,"Suburb":"Bourke","state":"NSW","long":145.251371,"lat":-30.205908},{"index":2578,"postcode":2845,"Suburb":"Wallerawang","state":"NSW","long":150.04201,"lat":-33.404961},{"index":2580,"postcode":2847,"Suburb":"Portland","state":"NSW","long":149.969799,"lat":-33.404462},{"index":2582,"postcode":2848,"Suburb":"Kandos","state":"NSW","long":149.964131,"lat":-32.901412},{"index":2586,"postcode":2849,"Suburb":"Rylstone","state":"NSW","long":150.059088,"lat":-32.708935},{"index":2615,"postcode":2850,"Suburb":"Mudgee","state":"NSW","long":149.602925,"lat":-32.685033},{"index":2695,"postcode":2864,"Suburb":"Cudal","state":"NSW","long":148.731814,"lat":-33.340269},{"index":2700,"postcode":2866,"Suburb":"Molong","state":"NSW","long":148.904531,"lat":-33.007264},{"index":2709,"postcode":2869,"Suburb":"Peak Hill","state":"NSW","long":148.266655,"lat":-32.584028},{"index":2713,"postcode":2870,"Suburb":"Parkes","state":"NSW","long":148.16819,"lat":-33.035496},{"index":2732,"postcode":2871,"Suburb":"Forbes","state":"NSW","long":147.811688,"lat":-33.476768},{"index":2753,"postcode":2873,"Suburb":"Tottenham","state":"NSW","long":147.260419,"lat":-32.269414},{"index":2758,"postcode":2875,"Suburb":"Trundle","state":"NSW","long":147.603587,"lat":-32.915604},{"index":2764,"postcode":2876,"Suburb":"Bogan Gate","state":"NSW","long":147.772834,"lat":-33.159023},{"index":2769,"postcode":2877,"Suburb":"Condobolin","state":"NSW","long":146.6853835,"lat":-32.27339899},{"index":2781,"postcode":2880,"Suburb":"Broken Hill","state":"NSW","long":142.203381,"lat":-30.170441},{"index":2799,"postcode":2902,"Suburb":"Kambah","state":"ACT","long":149.049785,"lat":-35.389263},{"index":2801,"postcode":2905,"Suburb":"Isabella Plains","state":"ACT","long":149.110025,"lat":-35.431011},{"index":2808,"postcode":2906,"Suburb":"Banks","state":"ACT","long":149.08972,"lat":-35.45676},{"index":2811,"postcode":2914,"Suburb":"Harrison","state":"ACT","long":149.125877,"lat":-35.170334},{"index":2818,"postcode":3006,"Suburb":"Southbank","state":"VIC","long":144.9520744,"lat":-37.82528675},{"index":2820,"postcode":3011,"Suburb":"Footscray","state":"VIC","long":144.907953,"lat":-37.807101},{"index":2823,"postcode":3020,"Suburb":"Sunshine West","state":"VIC","long":144.829945,"lat":-37.777204},{"index":2828,"postcode":3021,"Suburb":"St Albans","state":"VIC","long":144.796693,"lat":-37.743361},{"index":2832,"postcode":3028,"Suburb":"Laverton","state":"VIC","long":144.777165,"lat":-37.875066},{"index":2835,"postcode":3029,"Suburb":"Hoppers Crossing","state":"VIC","long":144.705831,"lat":-37.837165},{"index":2838,"postcode":3030,"Suburb":"Werribee","state":"VIC","long":144.64209,"lat":-37.91624},{"index":2845,"postcode":3032,"Suburb":"Ascot Vale","state":"VIC","long":144.897221,"lat":-37.774486},{"index":2849,"postcode":3033,"Suburb":"Keilor East","state":"VIC","long":144.857638,"lat":-37.74107},{"index":2850,"postcode":3034,"Suburb":"Carlton North","state":"VIC","long":144.86194,"lat":-37.761235},{"index":2851,"postcode":3036,"Suburb":"Keilor","state":"VIC","long":144.82246,"lat":-37.705324},{"index":2853,"postcode":3039,"Suburb":"Moonee Ponds","state":"VIC","long":144.922995,"lat":-37.766184},{"index":2854,"postcode":3040,"Suburb":"Essendon","state":"VIC","long":144.902556,"lat":-37.751845},{"index":2857,"postcode":3041,"Suburb":"Essendon North","state":"VIC","long":144.9011039,"lat":-37.72674618},{"index":2861,"postcode":3042,"Suburb":"Keilor Park","state":"VIC","long":144.866305,"lat":-37.727529},{"index":2865,"postcode":3043,"Suburb":"Gladstone Park","state":"VIC","long":144.888368,"lat":-37.691916},{"index":2868,"postcode":3044,"Suburb":"Pascoe Vale","state":"VIC","long":144.936356,"lat":-37.731138},{"index":2870,"postcode":3046,"Suburb":"Glenroy","state":"VIC","long":144.927968,"lat":-37.706578},{"index":2873,"postcode":3048,"Suburb":"Coolaroo","state":"VIC","long":144.923609,"lat":-37.653917},{"index":2875,"postcode":3054,"Suburb":"Carlton North","state":"VIC","long":144.96724,"lat":-37.786971},{"index":2877,"postcode":3056,"Suburb":"Brunswick","state":"VIC","long":144.960108,"lat":-37.766292},{"index":2880,"postcode":3057,"Suburb":"Brunswick East","state":"VIC","long":144.97728,"lat":-37.770012},{"index":2883,"postcode":3058,"Suburb":"Coburg","state":"VIC","long":144.964524,"lat":-37.739901},{"index":2888,"postcode":3059,"Suburb":"Greenvale","state":"VIC","long":144.879626,"lat":-37.639887},{"index":2889,"postcode":3061,"Suburb":"Campbellfield","state":"VIC","long":144.956763,"lat":-37.666265},{"index":2890,"postcode":3064,"Suburb":"Craigieburn","state":"VIC","long":144.942199,"lat":-37.546522},{"index":2895,"postcode":3068,"Suburb":"Fitzroy","state":"VIC","long":144.98622,"lat":-37.790974},{"index":2897,"postcode":3070,"Suburb":"Northcote","state":"VIC","long":144.999745,"lat":-37.774064},{"index":2899,"postcode":3071,"Suburb":"Thornbury","state":"VIC","long":145.007006,"lat":-37.759426},{"index":2900,"postcode":3072,"Suburb":"Preston","state":"VIC","long":145.005702,"lat":-37.74247},{"index":2908,"postcode":3073,"Suburb":"Reservoir","state":"VIC","long":145.005955,"lat":-37.712474},{"index":2913,"postcode":3074,"Suburb":"Thomastown","state":"VIC","long":145.006644,"lat":-37.684684},{"index":2914,"postcode":3079,"Suburb":"Ivanhoe","state":"VIC","long":145.048573,"lat":-37.772675},{"index":2917,"postcode":3082,"Suburb":"Mill Park","state":"VIC","long":145.065658,"lat":-37.664858},{"index":2918,"postcode":3083,"Suburb":"Bundoora","state":"VIC","long":145.056223,"lat":-37.701346},{"index":2921,"postcode":3084,"Suburb":"Heidelberg","state":"VIC","long":145.082685,"lat":-37.744406},{"index":2926,"postcode":3085,"Suburb":"Yallambie","state":"VIC","long":145.06988,"lat":-37.724398},{"index":2929,"postcode":3087,"Suburb":"Watsonia","state":"VIC","long":145.082426,"lat":-37.711787},{"index":2931,"postcode":3088,"Suburb":"Greensborough","state":"VIC","long":145.108339,"lat":-37.700175},{"index":2935,"postcode":3093,"Suburb":"Lower Plenty","state":"VIC","long":145.115208,"lat":-37.73919},{"index":2936,"postcode":3095,"Suburb":"Eltham","state":"VIC","long":145.158579,"lat":-37.713299},{"index":2939,"postcode":3101,"Suburb":"Kew","state":"VIC","long":145.036575,"lat":-37.807397},{"index":2941,"postcode":3102,"Suburb":"Kew East","state":"VIC","long":145.05219,"lat":-37.793805},{"index":2942,"postcode":3106,"Suburb":"Templestowe","state":"VIC","long":145.142675,"lat":-37.758335},{"index":2943,"postcode":3107,"Suburb":"Templestowe Lower","state":"VIC","long":145.110677,"lat":-37.765225},{"index":2944,"postcode":3108,"Suburb":"Doncaster","state":"VIC","long":145.125797,"lat":-37.786429},{"index":2945,"postcode":3109,"Suburb":"Doncaster East","state":"VIC","long":145.161649,"lat":-37.784786},{"index":2949,"postcode":3111,"Suburb":"Donvale","state":"VIC","long":145.186334,"lat":-37.794054},{"index":2950,"postcode":3113,"Suburb":"Warrandyte","state":"VIC","long":145.204689,"lat":-37.752123},{"index":2952,"postcode":3123,"Suburb":"Hawthorn East","state":"VIC","long":145.049415,"lat":-37.829752},{"index":2954,"postcode":3124,"Suburb":"Camberwell","state":"VIC","long":145.068191,"lat":-37.840867},{"index":2960,"postcode":3127,"Suburb":"Surrey Hills","state":"VIC","long":145.097236,"lat":-37.825173},{"index":2963,"postcode":3128,"Suburb":"Box Hill South","state":"VIC","long":145.122393,"lat":-37.828866},{"index":2968,"postcode":3129,"Suburb":"Box Hill North","state":"VIC","long":145.125084,"lat":-37.806965},{"index":2971,"postcode":3130,"Suburb":"Blackburn","state":"VIC","long":145.149653,"lat":-37.81805},{"index":2975,"postcode":3131,"Suburb":"Forest Hill","state":"VIC","long":145.174489,"lat":-37.817798},{"index":2978,"postcode":3132,"Suburb":"Mitcham","state":"VIC","long":145.196686,"lat":-37.819222},{"index":2981,"postcode":3133,"Suburb":"Vermont","state":"VIC","long":145.192303,"lat":-37.848786},{"index":2983,"postcode":3134,"Suburb":"Ringwood North","state":"VIC","long":145.257929,"lat":-37.823058},{"index":2988,"postcode":3135,"Suburb":"Ringwood East","state":"VIC","long":145.248209,"lat":-37.819594},{"index":2991,"postcode":3136,"Suburb":"Croydon","state":"VIC","long":145.282396,"lat":-37.779876},{"index":2995,"postcode":3137,"Suburb":"Kilsyth","state":"VIC","long":145.313346,"lat":-37.819364},{"index":2997,"postcode":3138,"Suburb":"Mooroolbark","state":"VIC","long":145.322794,"lat":-37.78391},{"index":2998,"postcode":3139,"Suburb":"Woori Yallock","state":"VIC","long":145.532666,"lat":-37.814506},{"index":3008,"postcode":3140,"Suburb":"Lilydale","state":"VIC","long":145.363185,"lat":-37.759154},{"index":3009,"postcode":3141,"Suburb":"SOUTH YARRA","state":"VIC","long":144.991264,"lat":-37.840679},{"index":3012,"postcode":3144,"Suburb":"Malvern","state":"VIC","long":145.034127,"lat":-37.857443},{"index":3015,"postcode":3145,"Suburb":"Malvern east","state":"VIC","long":145.049328,"lat":-37.873557},{"index":3021,"postcode":3146,"Suburb":"Glen Iris","state":"VIC","long":145.057833,"lat":-37.857116},{"index":3022,"postcode":3149,"Suburb":"Mount Waverley","state":"VIC","long":145.128118,"lat":-37.880748},{"index":3025,"postcode":3150,"Suburb":"Wheelers Hill","state":"VIC","long":145.168834,"lat":-37.914383},{"index":3028,"postcode":3151,"Suburb":"Burwood East","state":"VIC","long":145.151119,"lat":-37.85523},{"index":3030,"postcode":3152,"Suburb":"Wantirna South","state":"VIC","long":145.221695,"lat":-37.864951},{"index":3034,"postcode":3153,"Suburb":"Bayswater","state":"VIC","long":145.270141,"lat":-37.845116},{"index":3036,"postcode":3155,"Suburb":"Boronia","state":"VIC","long":145.284418,"lat":-37.861799},{"index":3037,"postcode":3156,"Suburb":"Ferntree Gully","state":"VIC","long":145.292895,"lat":-37.917932},{"index":3042,"postcode":3159,"Suburb":"Selby","state":"VIC","long":145.3892,"lat":-37.921894},{"index":3044,"postcode":3160,"Suburb":"Belgrave","state":"VIC","long":145.350821,"lat":-37.935097},{"index":3048,"postcode":3165,"Suburb":"Bentleigh east","state":"VIC","long":145.059426,"lat":-37.922369},{"index":3050,"postcode":3166,"Suburb":"Oakleigh East","state":"VIC","long":145.089719,"lat":-37.902805},{"index":3054,"postcode":3167,"Suburb":"Oakleigh South","state":"VIC","long":145.087614,"lat":-37.923345},{"index":3055,"postcode":3168,"Suburb":"Clayton","state":"VIC","long":145.12665,"lat":-37.91342},{"index":3057,"postcode":3169,"Suburb":"Clayton South","state":"VIC","long":145.115271,"lat":-37.945149},{"index":3059,"postcode":3170,"Suburb":"Mulgrave","state":"VIC","long":145.167859,"lat":-37.920945},{"index":3061,"postcode":3171,"Suburb":"Springvale","state":"VIC","long":145.156783,"lat":-37.944608},{"index":3063,"postcode":3172,"Suburb":"Dingley Village","state":"VIC","long":145.13465,"lat":-37.975981},{"index":3065,"postcode":3173,"Suburb":"Keysborough","state":"VIC","long":145.164863,"lat":-38.006771},{"index":3066,"postcode":3174,"Suburb":"Noble Park","state":"VIC","long":145.17877,"lat":-37.966218},{"index":3069,"postcode":3175,"Suburb":"Bangholme","state":"VIC","long":145.208504,"lat":-38.016114},{"index":3075,"postcode":3177,"Suburb":"Doveton","state":"VIC","long":145.237462,"lat":-37.990985},{"index":3077,"postcode":3178,"Suburb":"Rowville","state":"VIC","long":145.241589,"lat":-37.924431},{"index":3078,"postcode":3180,"Suburb":"Knoxfield","state":"VIC","long":145.246731,"lat":-37.893263},{"index":3079,"postcode":3181,"Suburb":"Prahran","state":"VIC","long":144.995504,"lat":-37.854683},{"index":3082,"postcode":3183,"Suburb":"Balaclava","state":"VIC","long":144.999026,"lat":-37.869072},{"index":3084,"postcode":3184,"Suburb":"Elwood","state":"VIC","long":144.984034,"lat":-37.881414},{"index":3086,"postcode":3186,"Suburb":"Brighton","state":"VIC","long":144.996329,"lat":-37.915066},{"index":3090,"postcode":3187,"Suburb":"back of burke","state":"VIC","long":145.013593,"lat":-37.925371},{"index":3092,"postcode":3188,"Suburb":"Hampton","state":"VIC","long":145.007238,"lat":-37.938889},{"index":3095,"postcode":3189,"Suburb":"Moorabbin","state":"VIC","long":145.047802,"lat":-37.942021},{"index":3098,"postcode":3191,"Suburb":"Sandringham","state":"VIC","long":145.013472,"lat":-37.956585},{"index":3099,"postcode":3192,"Suburb":"Cheltenham","state":"VIC","long":145.0623,"lat":-37.965655},{"index":3103,"postcode":3193,"Suburb":"Beaumaris","state":"VIC","long":145.031561,"lat":-37.978698},{"index":3107,"postcode":3194,"Suburb":"Mentone","state":"VIC","long":145.067356,"lat":-37.985059},{"index":3110,"postcode":3195,"Suburb":"Aspendale","state":"VIC","long":145.104105,"lat":-38.007024},{"index":3117,"postcode":3196,"Suburb":"Chelsea","state":"VIC","long":145.122762,"lat":-38.046479},{"index":3121,"postcode":3197,"Suburb":"Patterson Lakes","state":"VIC","long":145.134111,"lat":-38.072748},{"index":3123,"postcode":3199,"Suburb":"Frankston","state":"VIC","long":145.135961,"lat":-38.162578},{"index":3129,"postcode":3201,"Suburb":"Carrum Downs","state":"VIC","long":145.177905,"lat":-38.092874},{"index":3130,"postcode":3202,"Suburb":"Heatherton","state":"VIC","long":145.092698,"lat":-37.960555},{"index":3131,"postcode":3204,"Suburb":"Bentleigh","state":"VIC","long":145.036783,"lat":-37.916956},{"index":3135,"postcode":3207,"Suburb":"Port Melbourne","state":"VIC","long":144.918044,"lat":-37.832179},{"index":3137,"postcode":3212,"Suburb":"Lara","state":"VIC","long":144.422666,"lat":-38.039958},{"index":3140,"postcode":3213,"Suburb":"Lovely Banks","state":"VIC","long":144.2894,"lat":-37.9406},{"index":3144,"postcode":3214,"Suburb":"Corio","state":"VIC","long":144.352385,"lat":-38.084781},{"index":3147,"postcode":3215,"Suburb":"Bell Park","state":"VIC","long":144.33452,"lat":-38.111002},{"index":3154,"postcode":3216,"Suburb":"Grovedale","state":"VIC","long":144.334005,"lat":-38.215906},{"index":3163,"postcode":3218,"Suburb":"Herne Hill","state":"VIC","long":144.2894883,"lat":-38.13028025},{"index":3169,"postcode":3219,"Suburb":"Newcombe","state":"VIC","long":144.389533,"lat":-38.17277},{"index":3175,"postcode":3220,"Suburb":"Newtown","state":"VIC","long":144.34652,"lat":-38.157038},{"index":3179,"postcode":3222,"Suburb":"Wallington","state":"VIC","long":144.572989,"lat":-38.209921},{"index":3185,"postcode":3225,"Suburb":"Point Lonsdale","state":"VIC","long":144.614191,"lat":-38.271074},{"index":3189,"postcode":3226,"Suburb":"Ocean Grove","state":"VIC","long":144.523761,"lat":-38.263811},{"index":3190,"postcode":3228,"Suburb":"Torquay","state":"VIC","long":144.299978,"lat":-38.307545},{"index":3194,"postcode":3249,"Suburb":"Gerangamete","state":"VIC","long":143.557159,"lat":-38.388291},{"index":3219,"postcode":3264,"Suburb":"Terang","state":"VIC","long":142.884394,"lat":-38.232443},{"index":3220,"postcode":3272,"Suburb":"Mortlake","state":"VIC","long":142.853634,"lat":-37.982186},{"index":3222,"postcode":3280,"Suburb":"Warrnambool","state":"VIC","long":142.482889,"lat":-38.37884},{"index":3227,"postcode":3304,"Suburb":"Heywood","state":"VIC","long":141.952156,"lat":-38.182084},{"index":3239,"postcode":3305,"Suburb":"Portland","state":"VIC","long":141.437227,"lat":-38.235475},{"index":3251,"postcode":3331,"Suburb":"Bannockburn","state":"VIC","long":144.194625,"lat":-38.049195},{"index":3258,"postcode":3337,"Suburb":"Melton","state":"VIC","long":144.5462424,"lat":-37.65724033},{"index":3263,"postcode":3340,"Suburb":"Bacchus Marsh","state":"VIC","long":144.394442,"lat":-37.787135},{"index":3276,"postcode":3350,"Suburb":"Ballarat","state":"VIC","long":143.864505,"lat":-37.571941},{"index":3299,"postcode":3351,"Suburb":"Smythes Creek","state":"VIC","long":143.637463,"lat":-37.758248},{"index":3328,"postcode":3356,"Suburb":"Delacombe","state":"VIC","long":143.82846,"lat":-37.592283},{"index":3331,"postcode":3363,"Suburb":"Creswick North","state":"VIC","long":143.88637,"lat":-37.420588},{"index":3338,"postcode":3377,"Suburb":"Ararat","state":"VIC","long":142.956916,"lat":-37.231524},{"index":3364,"postcode":3430,"Suburb":"Clarkefield","state":"VIC","long":144.806632,"lat":-37.494056},{"index":3365,"postcode":3500,"Suburb":"Mildura","state":"VIC","long":142.154161,"lat":-34.1931},{"index":3369,"postcode":3502,"Suburb":"Mildura","state":"VIC","long":145.25835,"lat":-37.972887},{"index":3370,"postcode":3505,"Suburb":"Merbein","state":"VIC","long":142.004192,"lat":-34.180532},{"index":3377,"postcode":3550,"Suburb":"Bendigo","state":"VIC","long":144.285267,"lat":-36.764269},{"index":3393,"postcode":3555,"Suburb":"Kangaroo Flat","state":"VIC","long":144.245239,"lat":-36.777226},{"index":3399,"postcode":3585,"Suburb":"Swan Hill","state":"VIC","long":143.336906,"lat":-35.348388},{"index":3415,"postcode":3595,"Suburb":"Nyah West","state":"VIC","long":143.351682,"lat":-35.202752},{"index":3416,"postcode":3608,"Suburb":"Kirwans Bridge","state":"VIC","long":145.095753,"lat":-36.740713},{"index":3424,"postcode":3616,"Suburb":"Harston","state":"VIC","long":145.145217,"lat":-36.464118},{"index":3433,"postcode":3620,"Suburb":"Kyabram","state":"VIC","long":145.082735,"lat":-36.284584},{"index":3441,"postcode":3630,"Suburb":"Shepparton","state":"VIC","long":145.403176,"lat":-36.380853},{"index":3448,"postcode":3631,"Suburb":"Shepparton","state":"VIC","long":145.526693,"lat":-36.428694},{"index":3463,"postcode":3636,"Suburb":"Numurkah","state":"VIC","long":145.479471,"lat":-36.093878},{"index":3467,"postcode":3644,"Suburb":"Cobram","state":"NSW","long":145.632682,"lat":-35.945353},{"index":3474,"postcode":3658,"Suburb":"Broadford","state":"VIC","long":145.111854,"lat":-37.241401},{"index":3485,"postcode":3666,"Suburb":"Euroa","state":"VIC","long":145.565512,"lat":-36.786777},{"index":3502,"postcode":3677,"Suburb":"Wangaratta","state":"VIC","long":146.330564,"lat":-36.358017},{"index":3506,"postcode":3678,"Suburb":"Markwood","state":"VIC","long":146.482439,"lat":-36.68892},{"index":3541,"postcode":3683,"Suburb":"Chiltern","state":"VIC","long":146.604622,"lat":-36.180787},{"index":3545,"postcode":3690,"Suburb":"West Wodonga","state":"VIC","long":146.864361,"lat":-36.135717},{"index":3548,"postcode":3714,"Suburb":"Alexandra","state":"VIC","long":145.687889,"lat":-37.210538},{"index":3558,"postcode":3719,"Suburb":"Gobur","state":"VIC","long":145.608491,"lat":-37.041215},{"index":3562,"postcode":3720,"Suburb":"Bonnie Doon","state":"VIC","long":145.850304,"lat":-37.017241},{"index":3563,"postcode":3723,"Suburb":"Bridge Creek","state":"VIC","long":146.256507,"lat":-36.894465},{"index":3589,"postcode":3725,"Suburb":"Goorambat","state":"VIC","long":145.937326,"lat":-36.414359},{"index":3594,"postcode":3737,"Suburb":"Myrtleford","state":"VIC","long":146.82759,"lat":-36.554037},{"index":3609,"postcode":3747,"Suburb":"Beechworth","state":"VIC","long":146.725705,"lat":-36.361056},{"index":3617,"postcode":3749,"Suburb":"Yackandandah","state":"VIC","long":146.8638108,"lat":-36.42031113},{"index":3619,"postcode":3750,"Suburb":"Wollert","state":"VIC","long":145.005578,"lat":-37.596078},{"index":3620,"postcode":3752,"Suburb":"South Morang","state":"VIC","long":145.074353,"lat":-37.619102},{"index":3622,"postcode":3753,"Suburb":"Beveridge","state":"VIC","long":144.959512,"lat":-37.476474},{"index":3623,"postcode":3754,"Suburb":"Mernda","state":"VIC","long":145.112985,"lat":-37.593554},{"index":3625,"postcode":3765,"Suburb":"Montrose","state":"VIC","long":145.346621,"lat":-37.814771},{"index":3626,"postcode":3770,"Suburb":"Gruyere","state":"VIC","long":145.416004,"lat":-37.708784},{"index":3629,"postcode":3775,"Suburb":"Yarra Glen","state":"VIC","long":145.365993,"lat":-37.642852},{"index":3634,"postcode":3777,"Suburb":"Healesville","state":"VIC","long":145.513804,"lat":-37.606088},{"index":3642,"postcode":3781,"Suburb":"Cockatoo","state":"VIC","long":145.487862,"lat":-37.938471},{"index":3645,"postcode":3782,"Suburb":"Emerald","state":"VIC","long":145.433024,"lat":-37.938068},{"index":3649,"postcode":3793,"Suburb":"Monbulk","state":"VIC","long":145.429715,"lat":-37.874533},{"index":3650,"postcode":3796,"Suburb":"Mt Evelyn","state":"VIC","long":145.384922,"lat":-37.786977},{"index":3651,"postcode":3797,"Suburb":"Yarra Junction","state":"VIC","long":145.786343,"lat":-37.867809},{"index":3656,"postcode":3799,"Suburb":"Millgrove","state":"VIC","long":145.818512,"lat":-37.727566},{"index":3663,"postcode":3802,"Suburb":"Endeavour Hills","state":"VIC","long":145.255599,"lat":-37.971763},{"index":3664,"postcode":3803,"Suburb":"Hallam","state":"VIC","long":145.265524,"lat":-38.009435},{"index":3665,"postcode":3805,"Suburb":"Narre Warren South","state":"VIC","long":145.304198,"lat":-38.037026},{"index":3668,"postcode":3806,"Suburb":"Berwick","state":"VIC","long":145.349488,"lat":-38.025018},{"index":3670,"postcode":3807,"Suburb":"Beaconsfield","state":"VIC","long":145.371635,"lat":-38.048316},{"index":3672,"postcode":3809,"Suburb":"Officer","state":"VIC","long":145.406887,"lat":-38.069094},{"index":3674,"postcode":3810,"Suburb":"Pakenham","state":"VIC","long":145.472514,"lat":-38.04658},{"index":3678,"postcode":3812,"Suburb":"Nar Nar Goon","state":"VIC","long":145.565304,"lat":-38.070135},{"index":3681,"postcode":3818,"Suburb":"Drouin","state":"VIC","long":145.867337,"lat":-38.096289},{"index":3690,"postcode":3820,"Suburb":"Warragul","state":"VIC","long":145.922212,"lat":-38.207476},{"index":3693,"postcode":3823,"Suburb":"Yarragon","state":"VIC","long":146.065656,"lat":-38.210382},{"index":3696,"postcode":3825,"Suburb":"Moe","state":"VIC","long":146.342932,"lat":-37.978862},{"index":3727,"postcode":3840,"Suburb":"Morwell","state":"VIC","long":146.424457,"lat":-38.245215},{"index":3738,"postcode":3841,"Suburb":"Morwell","state":"VIC","long":147.463,"lat":-37.5832},{"index":3739,"postcode":3844,"Suburb":"Traralgon","state":"VIC","long":146.607101,"lat":-38.316869},{"index":3756,"postcode":3869,"Suburb":"Yinnar","state":"VIC","long":146.359836,"lat":-38.364689},{"index":3759,"postcode":3870,"Suburb":"Boolarra","state":"VIC","long":146.319351,"lat":-38.437946},{"index":3766,"postcode":3871,"Suburb":"Mirboo North","state":"VIC","long":146.158866,"lat":-38.42207},{"index":3776,"postcode":3874,"Suburb":"Carrajung Sth","state":"VIC","long":146.836248,"lat":-38.514438},{"index":3782,"postcode":3875,"Suburb":"Bairnsdale","state":"VIC","long":147.63201,"lat":-37.826032},{"index":3817,"postcode":3911,"Suburb":"Baxter","state":"VIC","long":145.169556,"lat":-38.196908},{"index":3819,"postcode":3913,"Suburb":"Tyabb","state":"VIC","long":145.166426,"lat":-38.262273},{"index":3820,"postcode":3916,"Suburb":"Shoreham","state":"VIC","long":145.050587,"lat":-38.415199},{"index":3823,"postcode":3919,"Suburb":"Crib Point","state":"VIC","long":145.199777,"lat":-38.352327},{"index":3824,"postcode":3930,"Suburb":"Mount Eliza","state":"VIC","long":145.093743,"lat":-38.195017},{"index":3826,"postcode":3931,"Suburb":"Mornington","state":"VIC","long":145.049503,"lat":-38.230038},{"index":3827,"postcode":3934,"Suburb":"Mt Martha","state":"VIC","long":145.031598,"lat":-38.2783},{"index":3828,"postcode":3939,"Suburb":"Rosebud","state":"VIC","long":144.900413,"lat":-38.42776},{"index":3833,"postcode":3940,"Suburb":"Rosebud West","state":"VIC","long":144.8754149,"lat":-38.37363083},{"index":3835,"postcode":3941,"Suburb":"Rye","state":"VIC","long":144.827203,"lat":-38.396077},{"index":3838,"postcode":3942,"Suburb":"Blairgowrie","state":"VIC","long":144.768301,"lat":-38.367874},{"index":3839,"postcode":3943,"Suburb":"Sorrento","state":"VIC","long":144.739101,"lat":-38.345527},{"index":3840,"postcode":3945,"Suburb":"Loch","state":"VIC","long":145.697053,"lat":-38.381582},{"index":3845,"postcode":3956,"Suburb":"Meeniyan","state":"VIC","long":145.955341,"lat":-38.597018},{"index":3856,"postcode":3976,"Suburb":"Hampton Park","state":"VIC","long":145.264296,"lat":-38.043995},{"index":3857,"postcode":3977,"Suburb":"Cranbourne","state":"VIC","long":145.2695101,"lat":-38.1466398},{"index":3869,"postcode":3981,"Suburb":"Koo Wee rup","state":"VIC","long":145.575,"lat":-38.207298},{"index":3876,"postcode":3996,"Suburb":"Inverloch","state":"VIC","long":145.745609,"lat":-38.629561},{"index":3878,"postcode":4000,"Suburb":"Brisbane","state":"QLD","long":153.022126,"lat":-27.468391},{"index":3887,"postcode":4012,"Suburb":"Nundah","state":"QLD","long":153.05355,"lat":-27.399335},{"index":3891,"postcode":4017,"Suburb":"Bracken Ridge","state":"QLD","long":153.047339,"lat":-27.318074},{"index":3900,"postcode":4019,"Suburb":"Clontarf","state":"QLD","long":153.088498,"lat":-27.248337},{"index":3908,"postcode":4020,"Suburb":"Scarborough","state":"QLD","long":153.0900858,"lat":-27.21066448},{"index":3912,"postcode":4021,"Suburb":"Kippa-Ring","state":"QLD","long":153.07529,"lat":-27.220098},{"index":3913,"postcode":4034,"Suburb":"Aspley","state":"QLD","long":153.040051,"lat":-27.354711},{"index":3918,"postcode":4037,"Suburb":"Eatons Hill","state":"QLD","long":152.936519,"lat":-27.341128},{"index":3919,"postcode":4053,"Suburb":"Mitchelton","state":"QLD","long":152.98725,"lat":-27.399573},{"index":3931,"postcode":4055,"Suburb":"Ferny Hills","state":"QLD","long":152.92424,"lat":-27.393676},{"index":3937,"postcode":4060,"Suburb":"Ashgrove","state":"QLD","long":152.985176,"lat":-27.445107},{"index":3942,"postcode":4064,"Suburb":"Paddington","state":"QLD","long":152.999039,"lat":-27.464676},{"index":3947,"postcode":4069,"Suburb":"Fig Tree Pocket","state":"QLD","long":152.898911,"lat":-27.502784},{"index":3958,"postcode":4070,"Suburb":"Bundaberg","state":"QLD","long":152.871141,"lat":-27.559944},{"index":3962,"postcode":4073,"Suburb":"Sinnamon Park","state":"QLD","long":152.951385,"lat":-27.549179},{"index":3964,"postcode":4074,"Suburb":"Jindalee","state":"QLD","long":152.921521,"lat":-27.554082},{"index":3972,"postcode":4075,"Suburb":"Corinda","state":"QLD","long":152.975619,"lat":-27.552135},{"index":3977,"postcode":4077,"Suburb":"Doolandella","state":"QLD","long":152.967822,"lat":-27.605551},{"index":3987,"postcode":4078,"Suburb":"Forest Lake","state":"QLD","long":152.950579,"lat":-27.612653},{"index":3989,"postcode":4102,"Suburb":"Woolloongabba","state":"QLD","long":153.0328,"lat":-27.495458},{"index":3993,"postcode":4103,"Suburb":"Northgate","state":"QLD","long":153.028768,"lat":-27.512175},{"index":3998,"postcode":4104,"Suburb":"Yeronga","state":"QLD","long":153.011535,"lat":-27.515758},{"index":4000,"postcode":4105,"Suburb":"Moorooka","state":"QLD","long":153.018893,"lat":-27.534438},{"index":4005,"postcode":4108,"Suburb":"Coopers Plains","state":"QLD","long":153.020197,"lat":-27.568359},{"index":4008,"postcode":4109,"Suburb":"Sunnybank","state":"QLD","long":153.057452,"lat":-27.57925},{"index":4015,"postcode":4110,"Suburb":"Mundoolun","state":"QLD","long":153.009526,"lat":-27.612178},{"index":4023,"postcode":4114,"Suburb":"Kingston","state":"QLD","long":153.110764,"lat":-27.652812},{"index":4030,"postcode":4118,"Suburb":"Regents Park","state":"QLD","long":153.027323,"lat":-27.673806},{"index":4037,"postcode":4121,"Suburb":"Holland Park West","state":"QLD","long":153.053952,"lat":-27.526966},{"index":4044,"postcode":4122,"Suburb":"Mount Gravatt","state":"QLD","long":153.088155,"lat":-27.543316},{"index":4052,"postcode":4123,"Suburb":"Rochedale South","state":"QLD","long":153.116151,"lat":-27.583528},{"index":4055,"postcode":4124,"Suburb":"Greenbank","state":"QLD","long":152.967761,"lat":-27.701681},{"index":4060,"postcode":4125,"Suburb":"Munruben","state":"QLD","long":153.04108,"lat":-27.730432},{"index":4063,"postcode":4129,"Suburb":"Loganholme","state":"QLD","long":153.186817,"lat":-27.681519},{"index":4067,"postcode":4130,"Suburb":"Cornubia","state":"QLD","long":153.24333,"lat":-27.669244},{"index":4069,"postcode":4132,"Suburb":"Crestmead","state":"QLD","long":153.084397,"lat":-27.681063},{"index":4073,"postcode":4133,"Suburb":"Chambers Flat","state":"QLD","long":153.102664,"lat":-27.723837},{"index":4077,"postcode":4152,"Suburb":"Camp Hill","state":"QLD","long":153.096812,"lat":-27.501349},{"index":4083,"postcode":4155,"Suburb":"Chandler","state":"QLD","long":153.156446,"lat":-27.5181},{"index":4084,"postcode":4157,"Suburb":"Capalaba","state":"QLD","long":153.207096,"lat":-27.568178},{"index":4089,"postcode":4161,"Suburb":"Alexandra Hills","state":"QLD","long":153.226864,"lat":-27.533407},{"index":4090,"postcode":4163,"Suburb":"Cleveland","state":"QLD","long":153.26571,"lat":-27.535216},{"index":4092,"postcode":4165,"Suburb":"Redland Bay","state":"QLD","long":153.263801,"lat":-27.623975},{"index":4098,"postcode":4169,"Suburb":"East Brisbane","state":"QLD","long":153.040982,"lat":-27.484177},{"index":4101,"postcode":4170,"Suburb":"Cannon Hill","state":"QLD","long":153.074231,"lat":-27.470778},{"index":4106,"postcode":4178,"Suburb":"Wynnum","state":"QLD","long":153.232567,"lat":-27.425651},{"index":4114,"postcode":4179,"Suburb":"Manly","state":"QLD","long":153.234041,"lat":-27.390823},{"index":4117,"postcode":4184,"Suburb":"Macleay Island","state":"QLD","long":153.384655,"lat":-27.676499},{"index":4124,"postcode":4205,"Suburb":"Bethania","state":"QLD","long":153.156289,"lat":-27.687389},{"index":4125,"postcode":4207,"Suburb":"Eagleby","state":"QLD","long":153.204523,"lat":-27.733991},{"index":4149,"postcode":4208,"Suburb":"Ormeau","state":"QLD","long":153.27631,"lat":-27.767029},{"index":4157,"postcode":4209,"Suburb":"Pimpama","state":"QLD","long":153.392892,"lat":-27.805498},{"index":4162,"postcode":4210,"Suburb":"Oxenford","state":"QLD","long":153.279483,"lat":-27.932207},{"index":4167,"postcode":4211,"Suburb":"Carrara","state":"QLD","long":153.241258,"lat":-28.035453},{"index":4186,"postcode":4213,"Suburb":"Bonogin","state":"QLD","long":153.318916,"lat":-28.110164},{"index":4193,"postcode":4214,"Suburb":"Molendinar","state":"QLD","long":153.365576,"lat":-27.967005},{"index":4200,"postcode":4215,"Suburb":"Southport","state":"QLD","long":153.397952,"lat":-27.967134},{"index":4208,"postcode":4216,"Suburb":"Runaway Bay","state":"QLD","long":153.419405,"lat":-27.839347},{"index":4218,"postcode":4217,"Suburb":"Benowa","state":"QLD","long":153.412197,"lat":-28.008783},{"index":4231,"postcode":4218,"Suburb":"Mermaid Waters","state":"QLD","long":153.41692,"lat":-28.037627},{"index":4245,"postcode":4220,"Suburb":"Miami","state":"QLD","long":153.434406,"lat":-28.084952},{"index":4252,"postcode":4221,"Suburb":"Palm Beach","state":"QLD","long":153.45837,"lat":-28.127323},{"index":4254,"postcode":4224,"Suburb":"Tugun","state":"QLD","long":153.489332,"lat":-28.150224},{"index":4256,"postcode":4225,"Suburb":"Kirra","state":"QLD","long":153.517333,"lat":-28.168787},{"index":4263,"postcode":4226,"Suburb":"Clear Island Waters","state":"QLD","long":153.40282,"lat":-28.06794},{"index":4268,"postcode":4227,"Suburb":"Reedy Creek","state":"QLD","long":153.410392,"lat":-28.101892},{"index":4270,"postcode":4285,"Suburb":"Beaudesert","state":"QLD","long":152.975131,"lat":-28.056979},{"index":4306,"postcode":4300,"Suburb":"Springfield","state":"QLD","long":152.884999,"lat":-27.682273},{"index":4320,"postcode":4301,"Suburb":"Collingwood Park","state":"QLD","long":152.858086,"lat":-27.629394},{"index":4324,"postcode":4304,"Suburb":"Booval","state":"QLD","long":152.80457,"lat":-27.620656},{"index":4333,"postcode":4305,"Suburb":"Ipswich","state":"QLD","long":152.753696,"lat":-27.627522},{"index":4358,"postcode":4306,"Suburb":"Walloon","state":"QLD","long":152.725408,"lat":-27.480898},{"index":4422,"postcode":4309,"Suburb":"Clumber","state":"QLD","long":152.523366,"lat":-27.98728},{"index":4440,"postcode":4310,"Suburb":"Milford","state":"QLD","long":152.600598,"lat":-28.121399},{"index":4468,"postcode":4311,"Suburb":"Coominya","state":"QLD","long":152.438771,"lat":-27.418572},{"index":4486,"postcode":4312,"Suburb":"Esk","state":"QLD","long":152.482636,"lat":-27.256065},{"index":4499,"postcode":4313,"Suburb":"Toogoolawah","state":"QLD","long":152.321536,"lat":-27.089517},{"index":4512,"postcode":4330,"Suburb":"Boonah","state":"NSW","long":151.204557,"lat":-33.839863},{"index":4513,"postcode":4341,"Suburb":"Laidley","state":"QLD","long":152.396656,"lat":-27.68768},{"index":4529,"postcode":4342,"Suburb":"Glenore Grove","state":"QLD","long":152.377687,"lat":-27.543847},{"index":4535,"postcode":4344,"Suburb":"Helidon","state":"QLD","long":152.060385,"lat":-27.572999},{"index":4549,"postcode":4350,"Suburb":"Rangeville","state":"QLD","long":151.852689,"lat":-27.576308},{"index":4600,"postcode":4352,"Suburb":"Postmans Ridge","state":"QLD","long":151.94182,"lat":-27.627661},{"index":4679,"postcode":4353,"Suburb":"Haden","state":"QLD","long":151.904578,"lat":-27.256984},{"index":4683,"postcode":4355,"Suburb":"Crows Nest","state":"QLD","long":152.008635,"lat":-27.18463},{"index":4700,"postcode":4357,"Suburb":"Millmerran","state":"QLD","long":151.103872,"lat":-27.957654},{"index":4726,"postcode":4361,"Suburb":"Clifton","state":"QLD","long":151.948279,"lat":-27.965214},{"index":4742,"postcode":4365,"Suburb":"Leyburn","state":"QLD","long":151.597527,"lat":-28.017149},{"index":4743,"postcode":4370,"Suburb":"Warwick","state":"QLD","long":151.9514612,"lat":-28.195678},{"index":4792,"postcode":4373,"Suburb":"Killarney","state":"QLD","long":152.305204,"lat":-28.349373},{"index":4795,"postcode":4385,"Suburb":"Texas","state":"QLD","long":151.24801,"lat":-28.777563},{"index":4806,"postcode":4401,"Suburb":"Oakey","state":"QLD","long":151.703647,"lat":-27.473135},{"index":4823,"postcode":4413,"Suburb":"Chinchilla","state":"QLD","long":150.545144,"lat":-26.706834},{"index":4846,"postcode":4415,"Suburb":"Miles","state":"QLD","long":150.205114,"lat":-26.627339},{"index":4856,"postcode":4428,"Suburb":"Wallumbilla","state":"QLD","long":149.206489,"lat":-26.40373},{"index":4860,"postcode":4470,"Suburb":"Charleville","state":"QLD","long":146.0999607,"lat":-26.73025809},{"index":4868,"postcode":4480,"Suburb":"Quilpie","state":"QLD","long":143.274156,"lat":-26.248504},{"index":4870,"postcode":4494,"Suburb":"Bungunya","state":"QLD","long":149.606552,"lat":-28.143515},{"index":4873,"postcode":4500,"Suburb":"Strathpine","state":"QLD","long":152.939438,"lat":-27.307845},{"index":4884,"postcode":4501,"Suburb":"Lawnton","state":"QLD","long":152.946201,"lat":-27.277628},{"index":4885,"postcode":4502,"Suburb":"Petrie","state":"QLD","long":152.966813,"lat":-27.264974},{"index":4887,"postcode":4503,"Suburb":"Kallangur","state":"QLD","long":152.993187,"lat":-27.240638},{"index":4894,"postcode":4504,"Suburb":"Narangba","state":"QLD","long":152.932083,"lat":-27.186624},{"index":4895,"postcode":4505,"Suburb":"Burpengary","state":"QLD","long":152.976886,"lat":-27.153669},{"index":4898,"postcode":4506,"Suburb":"Morayfield","state":"QLD","long":152.936289,"lat":-27.128401},{"index":4900,"postcode":4507,"Suburb":"Banksia Beach","state":"QLD","long":153.12414,"lat":-26.987776},{"index":4909,"postcode":4508,"Suburb":"Deception Bay","state":"QLD","long":153.013716,"lat":-27.181203},{"index":4910,"postcode":4510,"Suburb":"Caboolture","state":"QLD","long":152.960273,"lat":-27.070177},{"index":4922,"postcode":4511,"Suburb":"Ningi","state":"QLD","long":153.080799,"lat":-27.077933},{"index":4925,"postcode":4514,"Suburb":"Mount Archer","state":"QLD","long":152.760081,"lat":-26.91784},{"index":4939,"postcode":4516,"Suburb":"Elimbah","state":"QLD","long":152.957238,"lat":-27.005542},{"index":4940,"postcode":4518,"Suburb":"Glass House Mountains","state":"QLD","long":152.986033,"lat":-26.902425},{"index":4941,"postcode":4519,"Suburb":"Beerwah","state":"QLD","long":152.91803,"lat":-26.849388},{"index":4945,"postcode":4551,"Suburb":"Golden Beach","state":"QLD","long":153.088435,"lat":-26.828067},{"index":4967,"postcode":4552,"Suburb":"Maleny","state":"QLD","long":152.766898,"lat":-26.734305},{"index":4983,"postcode":4555,"Suburb":"Palmwoods","state":"QLD","long":152.95452,"lat":-26.691701},{"index":4987,"postcode":4556,"Suburb":"Tanawha","state":"QLD","long":153.049784,"lat":-26.700379},{"index":4993,"postcode":4558,"Suburb":"Maroochydore","state":"QLD","long":153.075373,"lat":-26.655067},{"index":5000,"postcode":4559,"Suburb":"Woombye","state":"QLD","long":152.965013,"lat":-26.66324},{"index":5004,"postcode":4560,"Suburb":"Bli Bli","state":"QLD","long":152.917384,"lat":-26.635087},{"index":5026,"postcode":4564,"Suburb":"Marcoola","state":"QLD","long":153.079239,"lat":-26.612359},{"index":5030,"postcode":4565,"Suburb":"Tewantin","state":"QLD","long":153.042307,"lat":-26.156837},{"index":5040,"postcode":4567,"Suburb":"Lanyana Way","state":"QLD","long":153.096957,"lat":-26.408596},{"index":5045,"postcode":4570,"Suburb":"Victory Heights","state":"QLD","long":152.616943,"lat":-26.153831},{"index":5134,"postcode":4573,"Suburb":"Coolum Beach","state":"QLD","long":153.068303,"lat":-26.516942},{"index":5142,"postcode":4574,"Suburb":"Gheerulla","state":"QLD","long":152.761131,"lat":-26.630369},{"index":5148,"postcode":4575,"Suburb":"Wurtulla","state":"QLD","long":153.119478,"lat":-26.742043},{"index":5157,"postcode":4580,"Suburb":"Tin Can Bay","state":"QLD","long":152.928987,"lat":-25.891004},{"index":5160,"postcode":4600,"Suburb":"Kilkivan","state":"QLD","long":152.221081,"lat":-26.055099},{"index":5165,"postcode":4601,"Suburb":"Goomeri","state":"QLD","long":152.012412,"lat":-26.145002},{"index":5175,"postcode":4605,"Suburb":"Cherbourg","state":"QLD","long":151.870256,"lat":-26.112408},{"index":5196,"postcode":4610,"Suburb":"Kingaroy","state":"QLD","long":151.522575,"lat":-26.576904},{"index":5224,"postcode":4615,"Suburb":"Nanango","state":"QLD","long":152.010432,"lat":-26.659559},{"index":5243,"postcode":4650,"Suburb":"Maryborough","state":"QLD","long":152.791302,"lat":-25.640978},{"index":5299,"postcode":4655,"Suburb":"Booral","state":"QLD","long":152.78368,"lat":-25.337998},{"index":5328,"postcode":4660,"Suburb":"Apple Tree Creek","state":"QLD","long":152.300968,"lat":-25.189298},{"index":5353,"postcode":4670,"Suburb":"Bundaberg","state":"QLD","long":152.297855,"lat":-24.88776},{"index":5410,"postcode":4674,"Suburb":"Euleilah","state":"QLD","long":151.872531,"lat":-24.688503},{"index":5419,"postcode":4677,"Suburb":"Seventeen Seventy","state":"QLD","long":151.727736,"lat":-24.318471},{"index":5427,"postcode":4680,"Suburb":"Gladstone","state":"QLD","long":151.917285,"lat":-23.446826},{"index":5476,"postcode":4700,"Suburb":"The Range","state":"QLD","long":150.958111,"lat":-23.180174},{"index":5488,"postcode":4701,"Suburb":"Frenchville","state":"QLD","long":150.557538,"lat":-23.354937},{"index":5512,"postcode":4702,"Suburb":"The Gemfields","state":"QLD","long":150.885772,"lat":-23.279639},{"index":5618,"postcode":4703,"Suburb":"Hidden Valley","state":"QLD","long":150.894331,"lat":-23.074563},{"index":5652,"postcode":4710,"Suburb":"Emu Park","state":"QLD","long":150.82635,"lat":-23.257223},{"index":5654,"postcode":4712,"Suburb":"Duaringa","state":"QLD","long":149.673726,"lat":-23.69521},{"index":5655,"postcode":4716,"Suburb":"THANGOOL","state":"QLD","long":150.806049,"lat":-24.483472},{"index":5657,"postcode":4717,"Suburb":"Blackwater","state":"QLD","long":148.891333,"lat":-23.632816},{"index":5658,"postcode":4720,"Suburb":"Emerald","state":"QLD","long":148.187851,"lat":-23.68492},{"index":5661,"postcode":4721,"Suburb":"Clermont","state":"QLD","long":147.17431,"lat":-22.449259},{"index":5674,"postcode":4725,"Suburb":"Barcaldine","state":"QLD","long":145.363533,"lat":-23.610575},{"index":5679,"postcode":4726,"Suburb":"Aramac","state":"QLD","long":145.486391,"lat":-22.536444},{"index":5682,"postcode":4730,"Suburb":"Longreach","state":"QLD","long":143.402522,"lat":-23.790711},{"index":5693,"postcode":4732,"Suburb":"Muttaburra","state":"QLD","long":144.622118,"lat":-22.427636},{"index":5695,"postcode":4737,"Suburb":"Campwin Beach","state":"QLD","long":149.178072,"lat":-21.43004},{"index":5707,"postcode":4740,"Suburb":"North Mackay","state":"QLD","long":149.059737,"lat":-21.33763},{"index":5774,"postcode":4754,"Suburb":"Mirani","state":"QLD","long":148.832763,"lat":-21.188063},{"index":5781,"postcode":4805,"Suburb":"Bowen","state":"QLD","long":148.457987,"lat":-20.016612},{"index":5791,"postcode":4807,"Suburb":"Ayr","state":"QLD","long":147.133033,"lat":-19.914965},{"index":5811,"postcode":4810,"Suburb":"Townsville","state":"QLD","long":146.764659,"lat":-19.227783},{"index":5828,"postcode":4811,"Suburb":"Idalia","state":"QLD","long":146.840325,"lat":-19.323109},{"index":5837,"postcode":4814,"Suburb":"Cranbrook","state":"QLD","long":146.754745,"lat":-19.285821},{"index":5850,"postcode":4815,"Suburb":"Kelso","state":"QLD","long":146.707586,"lat":-19.372329},{"index":5856,"postcode":4816,"Suburb":"Pentland","state":"QLD","long":146.791529,"lat":-19.787858},{"index":5897,"postcode":4817,"Suburb":"Cowley","state":"QLD","long":146.652307,"lat":-19.310498},{"index":5905,"postcode":4818,"Suburb":"Balgal Beach","state":"QLD","long":146.540275,"lat":-19.23794},{"index":5925,"postcode":4819,"Suburb":"Magnetic Island","state":"QLD","long":146.831766,"lat":-19.143944},{"index":5933,"postcode":4825,"Suburb":"Mount Isa","state":"QLD","long":137.432341,"lat":-21.017327},{"index":5978,"postcode":4850,"Suburb":"Ingham","state":"QLD","long":146.49572,"lat":-18.552533},{"index":6011,"postcode":4860,"Suburb":"Innisfail","state":"QLD","long":145.888782,"lat":-17.520343},{"index":6051,"postcode":4870,"Suburb":"Mooroobool","state":"QLD","long":145.742303,"lat":-16.923761},{"index":6083,"postcode":4877,"Suburb":"Port Douglas","state":"QLD","long":145.467604,"lat":-16.535286},{"index":6090,"postcode":4880,"Suburb":"Mareeba","state":"QLD","long":145.2931511,"lat":-17.0488028},{"index":6098,"postcode":4881,"Suburb":"Kuranda","state":"QLD","long":145.5578365,"lat":-16.91252285},{"index":6102,"postcode":4882,"Suburb":"Tolga","state":"QLD","long":145.47284,"lat":-17.202517},{"index":6103,"postcode":4883,"Suburb":"Atherton","state":"QLD","long":145.476659,"lat":-17.33327},{"index":6108,"postcode":5000,"Suburb":"Adelaide","state":"SA","long":138.608637,"lat":-34.937459},{"index":6117,"postcode":5006,"Suburb":"North Adelaide","state":"SA","long":138.584497,"lat":-34.911523},{"index":6119,"postcode":5008,"Suburb":"Ridleyton","state":"SA","long":138.559407,"lat":-34.887511},{"index":6127,"postcode":5009,"Suburb":"Kilkenny","state":"SA","long":138.542493,"lat":-34.896906},{"index":6130,"postcode":5011,"Suburb":"Woodville","state":"SA","long":138.5353265,"lat":-34.87089128},{"index":6136,"postcode":5015,"Suburb":"Ethelton","state":"SA","long":138.531567,"lat":-34.808422},{"index":6145,"postcode":5016,"Suburb":"Largs Bay","state":"SA","long":138.493796,"lat":-34.824516},{"index":6148,"postcode":5018,"Suburb":"North Haven","state":"SA","long":138.49958,"lat":-34.779057},{"index":6150,"postcode":5019,"Suburb":"Semaphore Park","state":"SA","long":138.477054,"lat":-34.847707},{"index":6154,"postcode":5020,"Suburb":"West Lakes Shore","state":"SA","long":138.481639,"lat":-34.867318},{"index":6155,"postcode":5021,"Suburb":"West Lakes","state":"SA","long":138.492908,"lat":-34.86628},{"index":6156,"postcode":5022,"Suburb":"Grange","state":"SA","long":138.49264,"lat":-34.905461},{"index":6161,"postcode":5023,"Suburb":"Findon","state":"SA","long":138.51199,"lat":-34.90073},{"index":6164,"postcode":5024,"Suburb":"West Beach","state":"SA","long":138.506052,"lat":-34.948827},{"index":6167,"postcode":5025,"Suburb":"Flinders Park","state":"SA","long":138.529573,"lat":-34.912384},{"index":6169,"postcode":5031,"Suburb":"Torrensville","state":"SA","long":138.570873,"lat":-34.936926},{"index":6174,"postcode":5032,"Suburb":"Lockleys","state":"SA","long":138.544358,"lat":-34.935734},{"index":6177,"postcode":5033,"Suburb":"Cowandilla","state":"SA","long":138.558451,"lat":-34.938858},{"index":6184,"postcode":5034,"Suburb":"Clarence Park","state":"SA","long":138.58811,"lat":-34.956227},{"index":6189,"postcode":5035,"Suburb":"Forrestville","state":"SA","long":138.575187,"lat":-34.952075},{"index":6195,"postcode":5037,"Suburb":"North Plympton","state":"SA","long":138.545826,"lat":-34.957399},{"index":6199,"postcode":5038,"Suburb":"Plympton","state":"SA","long":138.548367,"lat":-34.968051},{"index":6203,"postcode":5039,"Suburb":"Melrose Park","state":"SA","long":138.570739,"lat":-34.976263},{"index":6207,"postcode":5041,"Suburb":"Westbourne Park","state":"SA","long":138.594176,"lat":-35.00298},{"index":6212,"postcode":5042,"Suburb":"Pasadena","state":"SA","long":138.575023,"lat":-35.007341},{"index":6218,"postcode":5043,"Suburb":"Marion","state":"SA","long":138.553853,"lat":-35.005492},{"index":6223,"postcode":5044,"Suburb":"Glengowrie","state":"SA","long":138.516314,"lat":-35.001213},{"index":6225,"postcode":5045,"Suburb":"Glenelg","state":"SA","long":138.516973,"lat":-34.977122},{"index":6230,"postcode":5046,"Suburb":"Warradale","state":"SA","long":138.535434,"lat":-35.003794},{"index":6233,"postcode":5047,"Suburb":"Sturt","state":"SA","long":138.546572,"lat":-35.030702},{"index":6237,"postcode":5048,"Suburb":"Dover Gardens","state":"SA","long":138.520459,"lat":-35.017416},{"index":6242,"postcode":5049,"Suburb":"Seacliff","state":"SA","long":138.52272,"lat":-35.045389},{"index":6247,"postcode":5050,"Suburb":"Bellevue Heights","state":"SA","long":138.601272,"lat":-35.026307},{"index":6249,"postcode":5051,"Suburb":"Blackwood","state":"SA","long":138.620405,"lat":-35.033769},{"index":6253,"postcode":5052,"Suburb":"Belair","state":"SA","long":138.618684,"lat":-35.003888},{"index":6255,"postcode":5061,"Suburb":"Unley","state":"SA","long":138.60648,"lat":-34.957195},{"index":6261,"postcode":5062,"Suburb":"Hawthorn","state":"SA","long":138.602387,"lat":-35.004063},{"index":6272,"postcode":5063,"Suburb":"Parkside","state":"SA","long":138.621477,"lat":-34.954325},{"index":6277,"postcode":5065,"Suburb":"Toorak Gardens","state":"SA","long":138.633974,"lat":-34.940362},{"index":6282,"postcode":5066,"Suburb":"Beaumont","state":"SA","long":138.66029,"lat":-34.940962},{"index":6289,"postcode":5067,"Suburb":"Beulah Park","state":"SA","long":138.630575,"lat":-34.919985},{"index":6294,"postcode":5068,"Suburb":"Kensington Park","state":"SA","long":138.654999,"lat":-34.922605},{"index":6302,"postcode":5069,"Suburb":"St Peters","state":"SA","long":138.623527,"lat":-34.907597},{"index":6308,"postcode":5070,"Suburb":"Payneham","state":"SA","long":138.642172,"lat":-34.900496},{"index":6318,"postcode":5072,"Suburb":"Magill","state":"SA","long":138.696113,"lat":-34.912078},{"index":6326,"postcode":5073,"Suburb":"Rostrevor","state":"SA","long":138.683151,"lat":-34.89528},{"index":6330,"postcode":5074,"Suburb":"Newton","state":"SA","long":138.669275,"lat":-34.884233},{"index":6332,"postcode":5075,"Suburb":"Paradise","state":"SA","long":138.675254,"lat":-34.861332},{"index":6334,"postcode":5081,"Suburb":"Vale Park","state":"SA","long":138.617673,"lat":-34.891417},{"index":6340,"postcode":5082,"Suburb":"Prospect","state":"SA","long":138.587083,"lat":-34.886018},{"index":6346,"postcode":5084,"Suburb":"Blair Athol","state":"SA","long":138.581605,"lat":-34.864409},{"index":6350,"postcode":5085,"Suburb":"Northfield","state":"SA","long":138.612959,"lat":-34.856239},{"index":6356,"postcode":5086,"Suburb":"Oakden","state":"SA","long":138.64344,"lat":-34.854247},{"index":6362,"postcode":5087,"Suburb":"Windsor Gardens","state":"SA","long":138.637707,"lat":-34.876988},{"index":6364,"postcode":5089,"Suburb":"Highbury","state":"SA","long":138.724487,"lat":-34.851049},{"index":6365,"postcode":5090,"Suburb":"Hope Valley","state":"SA","long":138.704628,"lat":-34.843346},{"index":6366,"postcode":5091,"Suburb":"Tea Tree Gully","state":"SA","long":138.735572,"lat":-34.822615},{"index":6369,"postcode":5092,"Suburb":"Modbury Heights","state":"SA","long":138.680226,"lat":-34.821319},{"index":6373,"postcode":5093,"Suburb":"Valley View","state":"SA","long":138.657974,"lat":-34.83977},{"index":6375,"postcode":5094,"Suburb":"Gepps Cross","state":"SA","long":138.581513,"lat":-34.802736},{"index":6378,"postcode":5095,"Suburb":"Mawson Lakes","state":"SA","long":138.6199,"lat":-34.820685},{"index":6381,"postcode":5096,"Suburb":"Para Hills","state":"SA","long":138.644685,"lat":-34.798549},{"index":6384,"postcode":5097,"Suburb":"Redwood Park","state":"SA","long":138.707261,"lat":-34.819614},{"index":6387,"postcode":5098,"Suburb":"Ingle Farm","state":"SA","long":138.638946,"lat":-34.829603},{"index":6389,"postcode":5107,"Suburb":"Parafield Gardens","state":"SA","long":138.609874,"lat":-34.784447},{"index":6391,"postcode":5108,"Suburb":"Paralowie","state":"SA","long":138.61884,"lat":-34.761553},{"index":6396,"postcode":5109,"Suburb":"Salisbury Plain","state":"SA","long":138.663871,"lat":-34.771432},{"index":6402,"postcode":5110,"Suburb":"Burton","state":"SA","long":138.565037,"lat":-34.72213},{"index":6408,"postcode":5112,"Suburb":"Hillier","state":"SA","long":138.666615,"lat":-34.726229},{"index":6414,"postcode":5113,"Suburb":"Elizabeth North","state":"SA","long":138.674449,"lat":-34.702506},{"index":6423,"postcode":5114,"Suburb":"Blakeview","state":"SA","long":138.754254,"lat":-34.718681},{"index":6435,"postcode":5115,"Suburb":"Munno Parra","state":"SA","long":138.681702,"lat":-34.669486},{"index":6439,"postcode":5116,"Suburb":"Evanston Park","state":"SA","long":138.724059,"lat":-34.622783},{"index":6444,"postcode":5118,"Suburb":"Gawler East","state":"SA","long":138.705675,"lat":-34.58378},{"index":6460,"postcode":5121,"Suburb":"Macdonald Park","state":"SA","long":138.6507658,"lat":-34.68857809},{"index":6464,"postcode":5125,"Suburb":"Golden Grove","state":"SA","long":138.738733,"lat":-34.773234},{"index":6467,"postcode":5126,"Suburb":"Surrey Downs","state":"SA","long":138.724953,"lat":-34.793414},{"index":6470,"postcode":5127,"Suburb":"Wynn Vale","state":"SA","long":138.674657,"lat":-34.796682},{"index":6471,"postcode":5131,"Suburb":"Upper Hermitage","state":"SA","long":138.758111,"lat":-34.795292},{"index":6474,"postcode":5141,"Suburb":"Summertown","state":"SA","long":138.722419,"lat":-34.957325},{"index":6476,"postcode":5152,"Suburb":"Stirling","state":"SA","long":138.703957,"lat":-34.998401},{"index":6481,"postcode":5158,"Suburb":"Hallett Cove","state":"SA","long":138.519781,"lat":-35.084001},{"index":6487,"postcode":5159,"Suburb":"Aberfoyle Park","state":"SA","long":138.603897,"lat":-35.061705},{"index":6491,"postcode":5161,"Suburb":"Reynella","state":"SA","long":138.515652,"lat":-35.096383},{"index":6494,"postcode":5162,"Suburb":"Morphett Vale","state":"SA","long":138.565224,"lat":-35.112119},{"index":6496,"postcode":5163,"Suburb":"Hackham","state":"SA","long":138.552209,"lat":-35.147923},{"index":6500,"postcode":5164,"Suburb":"Christie Downs","state":"SA","long":138.500365,"lat":-35.124824},{"index":6501,"postcode":5165,"Suburb":"Christies Beach","state":"SA","long":138.475092,"lat":-35.137389},{"index":6503,"postcode":5167,"Suburb":"Port Norlunga","state":"SA","long":138.481211,"lat":-35.166866},{"index":6505,"postcode":5168,"Suburb":"Noarlunga Downs","state":"SA","long":138.49632,"lat":-35.149737},{"index":6508,"postcode":5169,"Suburb":"Seaford","state":"SA","long":138.477958,"lat":-35.194211},{"index":6513,"postcode":5173,"Suburb":"Aldinga Beach","state":"SA","long":138.470002,"lat":-35.290568},{"index":6517,"postcode":5203,"Suburb":"Yankalilla","state":"SA","long":138.388132,"lat":-35.450839},{"index":6523,"postcode":5204,"Suburb":"Wirrina Cove","state":"SA","long":138.324567,"lat":-35.572164},{"index":6533,"postcode":5210,"Suburb":"Mt Compass","state":"SA","long":138.655684,"lat":-35.387709},{"index":6536,"postcode":5211,"Suburb":"Encounter Bay","state":"SA","long":138.627975,"lat":-35.566153},{"index":6550,"postcode":5214,"Suburb":"Goolwa","state":"SA","long":138.834806,"lat":-35.491206},{"index":6558,"postcode":5231,"Suburb":"Kersbrook","state":"SA","long":138.839512,"lat":-34.81588636},{"index":6561,"postcode":5236,"Suburb":"Tungkillo","state":"SA","long":139.051698,"lat":-34.829433},{"index":6562,"postcode":5238,"Suburb":"Mannum","state":"SA","long":139.497207,"lat":-34.867709},{"index":6595,"postcode":5241,"Suburb":"Lobethal","state":"SA","long":138.864359,"lat":-34.897167},{"index":6596,"postcode":5242,"Suburb":"Balhannah","state":"SA","long":138.819125,"lat":-34.998416},{"index":6597,"postcode":5244,"Suburb":"Woodside","state":"SA","long":138.946384,"lat":-34.938664},{"index":6602,"postcode":5251,"Suburb":"Mount Barker","state":"SA","long":138.8734306,"lat":-35.13772392},{"index":6608,"postcode":5252,"Suburb":"Brukunga","state":"SA","long":138.947189,"lat":-35.035729},{"index":6614,"postcode":5253,"Suburb":"Murray Bridge","state":"SA","long":139.273641,"lat":-35.109083},{"index":6640,"postcode":5255,"Suburb":"Woodchester","state":"SA","long":138.975861,"lat":-35.248539},{"index":6659,"postcode":5256,"Suburb":"Clayton Bay","state":"SA","long":139.0336,"lat":-35.492114},{"index":6665,"postcode":5290,"Suburb":"Mt Gambier","state":"SA","long":140.764545,"lat":-37.839841},{"index":6667,"postcode":5303,"Suburb":"Parilla","state":"SA","long":140.685318,"lat":-35.191375},{"index":6668,"postcode":5330,"Suburb":"Waikere","state":"SA","long":139.975421,"lat":-33.94707},{"index":6685,"postcode":5341,"Suburb":"Renmark","state":"SA","long":140.753178,"lat":-33.739084},{"index":6697,"postcode":5343,"Suburb":"Berri","state":"SA","long":140.556181,"lat":-34.321288},{"index":6703,"postcode":5351,"Suburb":"Lyndoch","state":"SA","long":138.897802,"lat":-34.638218},{"index":6710,"postcode":5352,"Suburb":"Tanunda","state":"SA","long":138.9856268,"lat":-34.54472249},{"index":6717,"postcode":5353,"Suburb":"Angaston","state":"SA","long":139.326979,"lat":-34.577328},{"index":6730,"postcode":5355,"Suburb":"Nuriootpa","state":"SA","long":139.007886,"lat":-34.443966},{"index":6738,"postcode":5401,"Suburb":"Hamley Bridge","state":"SA","long":138.659866,"lat":-34.29774},{"index":6741,"postcode":5411,"Suburb":"Tarlee","state":"SA","long":138.772345,"lat":-34.256363},{"index":6743,"postcode":5412,"Suburb":"Riverton","state":"SA","long":138.775266,"lat":-34.18289},{"index":6747,"postcode":5420,"Suburb":"Lenswood","state":"SA","long":138.961232,"lat":-33.252592},{"index":6749,"postcode":5451,"Suburb":"Auburn","state":"SA","long":138.620883,"lat":-34.092233},{"index":6751,"postcode":5460,"Suburb":"Owen","state":"SA","long":138.517968,"lat":-34.312427},{"index":6755,"postcode":5461,"Suburb":"Balaklava","state":"SA","long":138.444457,"lat":-34.095314},{"index":6768,"postcode":5501,"Suburb":"Calomba","state":"SA","long":138.547998,"lat":-34.595073},{"index":6782,"postcode":5554,"Suburb":"Kadina","state":"SA","long":137.756193,"lat":-33.928029},{"index":6793,"postcode":5556,"Suburb":"Wallaroo","state":"SA","long":137.610828,"lat":-33.950853},{"index":6797,"postcode":5573,"Suburb":"Maitland","state":"SA","long":137.508603,"lat":-34.514149},{"index":6808,"postcode":5575,"Suburb":"Minlaton","state":"SA","long":137.544605,"lat":-34.823141},{"index":6826,"postcode":5600,"Suburb":"Whyalla Playford","state":"SA","long":137.277293,"lat":-33.036339},{"index":6830,"postcode":5607,"Suburb":"Coffin Bay","state":"SA","long":136.456454,"lat":-35.156446},{"index":6881,"postcode":5608,"Suburb":"Whyalla Stuart","state":"SA","long":137.5325164,"lat":-33.05754209},{"index":6886,"postcode":6000,"Suburb":"Perth","state":"WA","long":115.859912,"lat":-31.948762},{"index":6889,"postcode":6006,"Suburb":"North Perth","state":"WA","long":115.852913,"lat":-31.92934},{"index":6890,"postcode":6009,"Suburb":"Nedlands","state":"WA","long":115.804692,"lat":-31.985791},{"index":6895,"postcode":6012,"Suburb":"Mosman Park","state":"WA","long":115.763404,"lat":-32.015976},{"index":6896,"postcode":6014,"Suburb":"Floreat","state":"WA","long":115.808169,"lat":-31.936389},{"index":6900,"postcode":6016,"Suburb":"Glendalough","state":"WA","long":115.831181,"lat":-31.921222},{"index":6902,"postcode":6017,"Suburb":"Osborne Park","state":"WA","long":115.814562,"lat":-31.908357},{"index":6905,"postcode":6018,"Suburb":"Innaloo","state":"WA","long":115.786821,"lat":-31.891957},{"index":6912,"postcode":6019,"Suburb":"Scarborough","state":"WA","long":115.769183,"lat":-31.90733},{"index":6914,"postcode":6020,"Suburb":"North Beach","state":"WA","long":115.765396,"lat":-31.852698},{"index":6919,"postcode":6021,"Suburb":"Balcatta","state":"WA","long":115.811933,"lat":-31.871671},{"index":6921,"postcode":6023,"Suburb":"Duncraig","state":"WA","long":115.774028,"lat":-31.834469},{"index":6923,"postcode":6024,"Suburb":"Greenwood","state":"WA","long":115.803068,"lat":-31.83489},{"index":6925,"postcode":6025,"Suburb":"Kallaroo","state":"WA","long":115.754405,"lat":-31.79583},{"index":6929,"postcode":6026,"Suburb":"Kingsley","state":"WA","long":115.799832,"lat":-31.801707},{"index":6931,"postcode":6027,"Suburb":"Joondalup","state":"WA","long":115.756405,"lat":-31.763347},{"index":6939,"postcode":6030,"Suburb":"Quinns Rocks","state":"WA","long":115.711684,"lat":-31.687341},{"index":6945,"postcode":6031,"Suburb":"Banksia Grove","state":"WA","long":115.772138,"lat":-31.692538},{"index":6948,"postcode":6032,"Suburb":"Maylands","state":"WA","long":115.74887,"lat":-31.643227},{"index":6949,"postcode":6050,"Suburb":"Menora","state":"WA","long":115.871864,"lat":-31.930574},{"index":6952,"postcode":6052,"Suburb":"Bedford","state":"WA","long":115.883976,"lat":-31.915463},{"index":6954,"postcode":6053,"Suburb":"Bayswater","state":"WA","long":115.914851,"lat":-31.920863},{"index":6955,"postcode":6056,"Suburb":"Swan View","state":"WA","long":116.0261,"lat":-31.838398},{"index":6972,"postcode":6059,"Suburb":"Dianella","state":"WA","long":115.861726,"lat":-31.882862},{"index":6973,"postcode":6060,"Suburb":"Yokine","state":"WA","long":115.840879,"lat":-31.903241},{"index":6978,"postcode":6061,"Suburb":"Balga","state":"WA","long":115.843478,"lat":-31.864113},{"index":6982,"postcode":6062,"Suburb":"Noranda","state":"WA","long":115.89088,"lat":-31.886322},{"index":6985,"postcode":6063,"Suburb":"Beechboro","state":"WA","long":115.937824,"lat":-31.866822},{"index":6987,"postcode":6064,"Suburb":"Alexander Heights","state":"WA","long":115.849098,"lat":-31.835333},{"index":6991,"postcode":6065,"Suburb":"Ashby","state":"WA","long":115.845329,"lat":-31.69444},{"index":7009,"postcode":6069,"Suburb":"Upper Swan","state":"WA","long":115.989248,"lat":-31.78156868},{"index":7016,"postcode":6071,"Suburb":"Glen Forrest","state":"WA","long":116.100432,"lat":-31.889087},{"index":7018,"postcode":6073,"Suburb":"Mundaring","state":"WA","long":116.28143,"lat":-31.949349},{"index":7021,"postcode":6076,"Suburb":"Lesmurdie","state":"WA","long":116.208263,"lat":-32.108961},{"index":7033,"postcode":6084,"Suburb":"Bullsbrook","state":"WA","long":116.072828,"lat":-31.622021},{"index":7038,"postcode":6102,"Suburb":"Bentley","state":"WA","long":115.904425,"lat":-32.005644},{"index":7042,"postcode":6104,"Suburb":"Belmont","state":"WA","long":115.977633,"lat":-31.965498},{"index":7045,"postcode":6105,"Suburb":"Kewdale","state":"WA","long":115.963293,"lat":-31.95388},{"index":7048,"postcode":6107,"Suburb":"East Cannington","state":"WA","long":115.967142,"lat":-32.017663},{"index":7055,"postcode":6108,"Suburb":"Thornlie","state":"WA","long":115.953584,"lat":-32.06089},{"index":7056,"postcode":6110,"Suburb":"Gosnells","state":"WA","long":116.008603,"lat":-32.078535},{"index":7060,"postcode":6112,"Suburb":"Mount Nasura","state":"WA","long":115.997934,"lat":-32.158675},{"index":7072,"postcode":6147,"Suburb":"Langford","state":"WA","long":115.941353,"lat":-32.043771},{"index":7075,"postcode":6148,"Suburb":"Riverton","state":"WA","long":115.924691,"lat":-32.030183},{"index":7079,"postcode":6149,"Suburb":"Bull Creek","state":"WA","long":115.858679,"lat":-32.064941},{"index":7081,"postcode":6150,"Suburb":"Bateman","state":"WA","long":115.833608,"lat":-32.061682},{"index":7084,"postcode":6151,"Suburb":"South Perth","state":"WA","long":115.869482,"lat":-31.982199},{"index":7087,"postcode":6152,"Suburb":"Manning","state":"WA","long":115.870058,"lat":-32.008509},{"index":7092,"postcode":6153,"Suburb":"Applecross","state":"WA","long":115.837525,"lat":-32.024363},{"index":7098,"postcode":6154,"Suburb":"Booragoon","state":"WA","long":115.825994,"lat":-32.040061},{"index":7101,"postcode":6155,"Suburb":"Canning Vale","state":"WA","long":115.890779,"lat":-32.061501},{"index":7105,"postcode":6156,"Suburb":"Melville","state":"WA","long":115.800233,"lat":-32.03954},{"index":7109,"postcode":6158,"Suburb":"East Fremantle","state":"WA","long":115.766561,"lat":-32.038541},{"index":7110,"postcode":6160,"Suburb":"Fremantle","state":"WA","long":115.754545,"lat":-32.054065},{"index":7111,"postcode":6162,"Suburb":"South Fremantle","state":"WA","long":115.759022,"lat":-32.068768},{"index":7114,"postcode":6163,"Suburb":"Kardinya","state":"WA","long":115.798722,"lat":-32.084784},{"index":7126,"postcode":6164,"Suburb":"Yangebup","state":"WA","long":115.854584,"lat":-32.131993},{"index":7137,"postcode":6166,"Suburb":"Lake Coogee","state":"WA","long":115.790704,"lat":-32.158361},{"index":7142,"postcode":6167,"Suburb":"Orelia","state":"WA","long":115.835308,"lat":-32.223657},{"index":7155,"postcode":6168,"Suburb":"Cooloongup","state":"WA","long":115.75773,"lat":-32.281957},{"index":7163,"postcode":6169,"Suburb":"Safety Bay","state":"WA","long":115.763949,"lat":-32.338504},{"index":7167,"postcode":6172,"Suburb":"Port Kennedy","state":"WA","long":115.753147,"lat":-32.37547},{"index":7168,"postcode":6173,"Suburb":"Secret Harbour","state":"WA","long":115.757908,"lat":-32.407414},{"index":7169,"postcode":6175,"Suburb":"Dudley park","state":"WA","long":115.755289,"lat":-32.445896},{"index":7170,"postcode":6210,"Suburb":"Greenfields","state":"WA","long":115.728286,"lat":-32.557981},{"index":7195,"postcode":6211,"Suburb":"Dawesville","state":"WA","long":115.728286,"lat":-32.557981},{"index":7198,"postcode":6230,"Suburb":"Gelorup","state":"WA","long":115.649205,"lat":-33.341076},{"index":7211,"postcode":6280,"Suburb":"Busselton","state":"WA","long":115.302732,"lat":-33.728945},{"index":7246,"postcode":6285,"Suburb":"Margaret River","state":"WA","long":115.280972,"lat":-33.941351},{"index":7255,"postcode":6330,"Suburb":"Albany","state":"WA","long":117.863286,"lat":-34.905438},{"index":7305,"postcode":6530,"Suburb":"Geraldton","state":"WA","long":114.862505,"lat":-28.802491},{"index":7328,"postcode":6532,"Suburb":"Glenfield","state":"WA","long":115.004595,"lat":-28.440886},{"index":7387,"postcode":6535,"Suburb":"Sandy Gully","state":"WA","long":114.852437,"lat":-27.832196},{"index":7397,"postcode":6537,"Suburb":"Denham","state":"WA","long":114.627287,"lat":-26.904889},{"index":7405,"postcode":6560,"Suburb":"Wundowie","state":"WA","long":116.428564,"lat":-31.817666},{"index":7406,"postcode":6562,"Suburb":"Bakers Hill","state":"WA","long":116.473434,"lat":-31.746189},{"index":7409,"postcode":6566,"Suburb":"Toodyay","state":"WA","long":116.38064,"lat":-31.484853},{"index":7419,"postcode":6743,"Suburb":"Kununurra","state":"WA","long":129.662008,"lat":-17.293532},{"index":7426,"postcode":6990,"Suburb":"GOSNELLS","state":"WA","long":116.008461,"lat":-32.060407},{"index":7427,"postcode":7008,"Suburb":"Lenah Valley","state":"TAS","long":147.293268,"lat":-42.861932},{"index":7430,"postcode":7172,"Suburb":"Nugent","state":"TAS","long":147.631695,"lat":-42.730285},{"index":7435,"postcode":7173,"Suburb":"Sorell","state":"TAS","long":147.630737,"lat":-42.823649},{"index":7442,"postcode":7277,"Suburb":"Legana","state":"TAS","long":146.996977,"lat":-41.366416}]